Library System	Branch Name	Library Type	Street Address	City	ZIP Code	County	Website	Phone Number	Director	Branch Head	Building Square Feet	FTE Staff	Hours
Alamance County Public Libraries	May Memorial Library (Main)	Public	342 S Spring St	Burlington	27215	Alamance	https://www.alamancelibraries.org/	(336) 229-3588	Susana Goldman (Interim)	Deana Cunningham	"30,000"	26.48	Mon: 9 am-9 pm  Tue: 9 am-9 pm  Wed: 9 am-9 pm  Thu: 9 am-9 pm  Fri: 9 am-6 pm  Sat: 9 am-6 pm  Sun: 1 pm-5 pm
Alamance County Public Libraries	Graham Public Library	Public	211 S Main St	Graham	27253	Alamance	https://www.alamancelibraries.org/	(336) 570-6730	Susana Goldman (Interim)	Luba Sawczyn	"10,634"	7.75	Mon: 9 am-8 pm  Tue: 9 am-8 pm  Wed: 9 am-6 pm  Thu: 9 am-6 pm  Fri: 9 am-6 pm  Sat: 9 am-6 pm  Sun: (Sep-May) 2 pm-5 pm
Alamance County Public Libraries	Mebane Public Library	Public	101 S First St	Mebane	27302	Alamance	https://www.alamancelibraries.org/	(919) 563-6431	Susana Goldman (Interim)	Katherine Arends	"14,000"	10.00	Mon: 9 am-8 pm  Tue: 9 am-8 pm  Wed: 9 am-6 pm  Thu: 9 am-6 pm  Fri: 9 am-6 pm  Sat: 9 am-6 pm  Sun: (Sep-May) 2 pm-5 pm
Alamance County Public Libraries	North Park Library / Community Center	Public	849 Sharpe Rd	Burlington	27217	Alamance	https://www.alamancelibraries.org/	(336) 226-7185	Susana Goldman (Interim)	Alexis Vivian	"1,100"	1.00	Mon: 12 pm-3 pm; 4 pm-8 pm  Tue: 12 pm-3 pm; 4 pm-8 pm  Wed: 12 pm-3 pm; 4 pm-8 pm  Thu: 12 pm-3 pm; 4 pm-8 pm 
Albemarle Regional Library	Ahoskie Public Library	Public	210 E Church St	Ahoskie	27910	Hertford	http://www.arlnc.org/	(252) 332-5500	Jennifer Patterson	Cindy Henderson	"1,770"	2.48	Mon: 10 am-6 pm Tue: 10 am-6 pm Wed: 10 am-6 pm Thu: 10 am-6 pm Fri: 10 am-6 pm
Albemarle Regional Library	Gates County Library	Public	14 Cypress Creek Dr	Gatesville	27938	Gates	http://www.arlnc.org/	(252) 357-0110	Jennifer Patterson	Pat Familar	"4,192"	1.75	Mon: 10 am-6 pm  Tue: 10 am-6 pm  Wed: 10 am-8 pm Thu: 10 am-6 pm  Fri: 10 am-6 pm  Sat: 10 am-2 pm
Albemarle Regional Library	Hertford County Library	Public	303 W Tryon St	Winton	27986	Hertford	http://www.arlnc.org/	(252) 358-7855	Jennifer Patterson	Cynthia Rawls	"6,052"	1.85	Mon: 10 am-6 pm  Tue: 10 am-8 pm  Wed: 10 am-6 pm  Thu: 10 am-6 pm  Fri: 10 am-6 pm  Sat: 10 am-2 pm 
Albemarle Regional Library	Bertie County Public Library	Public	111 US Hwy 13/17 Bypass	Windsor	27983	Bertie	http://www.arlnc.org/	(252) 794-2244	Jennifer Patterson	Nancy Hughes	"5,076"	2.38	Mon: 10 am-8 pm  Tue: 10 am-6 pm  Wed: 10 am-6 pm Thu: 10 am-6 pm  Fri: 10 am-6 pm  Sat: 10 am-2 pm
Albemarle Regional Library	Elizabeth Sewell Parker Library	Public	213 E Main St	Murfreesboro	27855	Hertford	http://www.arlnc.org/	(252) 398-4494	Jennifer Patterson	Judy Hachey	"5,000"	1.83	Mon: 10 am-6 pm Tue: 10 am-6 pm Wed: 10 am-6 pm Thu: 10 am-8 pm Fri: 10 am-6 pm  Sat: 10 am-2 pm
Albemarle Regional Library	Northampton County Memorial Library	Public	207 W Jefferson St	Jackson	27845	Northampton	http://www.arlnc.org/	(252) 534-3571	Jennifer Patterson	Pam Brett	"8,380"	2.53	Mon: 10 am-6 pm  Tue: 10 am-6 pm  Wed: 10 am-6 pm  Thu: 10 am-8 pm  Fri: 10 am-6 pm  Sat: 10 am-2 pm
Albemarle Regional Library	Sallie H. Jenkins Memorial Library	Public	302 Broad St	Aulander	27805	Bertie	http://www.arlnc.org/	(252) 345-4461	Jennifer Patterson	Ellen Chauvin	"1,891"	0.63	Mon: 11 am-5 pm  Tue: 11 am-5 pm  Wed: 11 am-5 pm  Thu: 11 am-5 pm 
Alexander County Library	Alexander County Library (Main)	Public	77 1st Ave Sw	Taylorsville	28681	Alexander	http://alexanderlibrary.org/	(828) 632-4058	Laura Crooks	Laura Crooks	"7,200"	7.70	Mon: 9 am-7 pm  Tue: 9 am-6 pm  Wed: 9 am-6 pm  Thu: 9 am-7 pm  Fri: 9 am-6 pm  Sat: 9 am-3 pm
Alexander County Library	Bethlehem Branch Library	Public	45 Rink Dam Rd	Hickory	28601	Alexander	http://alexanderlibrary.org/	(828) 495-8753	Laura Crooks	Glenda Leonard	"3,420"	7.63	Mon: 9 am-2 pm  Tue: 12 pm-7 pm  Wed: 9 am-2 pm  Thu: 12 pm-7 pm  Fri: 12 pm-5 pm
Alexander County Library	Stony Point Branch Library	Public	431 Ruritan Park Rd	Stony Point	28678	Alexander	http://alexanderlibrary.org/	(828) 632-4058	Laura Crooks	Gloria Hamilton-Parsons	"2,500"	0.63	Mon: 9 am-1 pm Tue: 3 pm-7 pm Wed: 9 am-1 pm Thu: 3 pm-7 pm
Appalachian Regional Library	Ashe County Library	Public	148 Library Dr	West Jefferson	28694	Ashe	http://www.arlibrary.org/	(336) 846-2041	Jane Blackburn	Suzanne Moore	"27,958"	12.25	Mon: 9 am-7 pm  Tue: 9 am-7 pm  Wed: 9 am-7 pm  Thu: 9 am-7 pm  Fri: 9 am-5 pm  Sat: 9 am-5 pm
Appalachian Regional Library	Traphill Branch Library	Public	6938 Traphill Rd	Traphill	28685	Wilkes	http://www.arlibrary.org/	(336) 957-2534	Jane Blackburn	Linda Pranger	"2,240"	0.50	Tue: 10 am-1 pm; 1:30 pm-6 pm  Thu: 10 am-1 pm; 1:30 pm-6 pm  Sat: (2nd & 4th) 10 am-3 pm
Appalachian Regional Library	Watauga County Public Library	Public	140 Queen St	Boone	28607	Watauga	http://www.arlibrary.org/	(828) 264-8784	Jane Blackburn	Monica Caruso	"16,043"	14.50	Mon: 9 am-7 pm  Tue: 9 am-7 pm  Wed: 9 am-7 pm  Thu: 9 am-7 pm  Fri: 9 am-5 pm  Sat: 9 am-5 pm
Appalachian Regional Library	Western Watauga Branch Library	Public	1085 Old US Hwy 421	Sugar Grove	28679	Watauga	http://www.arlibrary.org/	(828) 297-5515	Jane Blackburn	Jackie Cornette	860	1.50	Mon: 10 am-5 pm  Tue: 10 am-7 pm  Wed: 10 am-5 pm  Thu: 10 am-7 pm
Appalachian Regional Library	Wilkes County Library	Public	215 10th St	North Wilkesboro	28659	Wilkes	http://www.arlibrary.org/	(336) 838-2818	Jane Blackburn	Aimee James	"24,000"	13.53	Mon: 9 am-7 pm  Tue: 9 am-7 pm  Wed: 9 am-7 pm  Thu: 9 am-7 pm  Fri: 9 am-5 pm  Sat: 9 am-5 pm
Avery-Mitchell-Yancey Regional Library	Avery County Library	Public	150 Library Pl	Newland	28657	Avery	http://www.amyregionallibrary.org/	(828) 733-9393	Amber Westall Briggs	Phyllis Burroughs	"11,206"	2.00	Mon: 9 am-8 pm  Tue: 9 am-8 pm  Wed: 9 am-5 pm  Thu: 9 am-5 pm  Fri: 9 am-5 pm  Sat: 10 am-1 pm
Avery-Mitchell-Yancey Regional Library	Avery-Mitchell-Yancey Regional Library Bookmobile	Public	289 Burnsville School Rd	Burnsville	28714	Yancey	http://www.amyregionallibrary.org/	(828) 682-4476	Amber Westall Briggs	Sylvia Archer	N/A	1.00	Varies
Avery-Mitchell-Yancey Regional Library	Mitchell County Library	Public	18 N Mitchell Ave	Bakersville	28705	Mitchell	http://www.amyregionallibrary.org/	(828) 688-2511	Amber Westall Briggs	Cynthia Burleson	"4,800"	2.00	Mon: 9 am-5 pm  Tue: 9 am-8 pm  Wed: 9 am-5 pm  Thu: 9 am-8 pm  Fri: 9 am-5 pm  Sat: 9 am-12 pm  
Avery-Mitchell-Yancey Regional Library	Spruce Pine Public Library	Public	142 Walnut Ave	Spruce Pine	28777	Mitchell	http://www.amyregionallibrary.org/	(828) 765-4673	Amber Westall Briggs	Cathy Silver	"7,106"	2.00	Mon: 9 am-8 pm  Tue: 9 am-8 pm  Wed: 9 am-5 pm  Thu: 9 am-5 pm  Fri: 9 am-5 pm  Sat: 10 am-12 pm  
Avery-Mitchell-Yancey Regional Library	Yancey County Library	Public	321 School Cir	Burnsville	28714	Yancey	http://www.amyregionallibrary.org/	(828) 682-2600	Amber Westall Briggs	Melanie Stallings	"5,400"	3.00	Mon: 9 am-5 pm  Tue: 9 am-8 pm  Wed: 9 am-5 pm  Thu: 9 am-8 pm  Fri: 9 am-5 pm  Sat: 10 am-1 pm  
Beaufort-Hyde-Martin Regional Library	Bath Community Library	Public	102 S Harding St	Bath	27808	Beaufort	https://bhmlib.org/	(252) 923-6371	Amanda Corbett	Ann Wiggins	"2,288"	1.53	Mon: 10 am-6 pm Tue: 10 am-6 pm Wed: 10 am-6 pm Thu: 10 am-6 pm Fri: 10 am-6 pm Sat: 9 am-12 pm
Beaufort-Hyde-Martin Regional Library	BHM Regional Library	Public	158 N Market St	Washington	27889	Beaufort	https://bhmlib.org/	(252) 946-6401	Amanda Corbett	Amanda Corbett	"3,366"	6.45	Mon: 9 am-5 pm  Tue: 9 am-5 pm  Wed: 9 am-5 pm  Thu: 9 am-5 pm  Fri: 9 am-5 pm 
Beaufort-Hyde-Martin Regional Library	Belhaven Public Library	Public	333 E Main St	Belhaven	27810	Beaufort	https://bhmlib.org/	(252) 943-2993	Amanda Corbett	Pat Saunders	"3,600"	2.15	Mon: 9:30 am-5:30 pm  Tue: 9:30 am-5:30 pm  Wed: 9:30 am-5:30 pm  Thu: 9:30 am-5:30 pm  Fri: 9:30 am-5:30 pm  Sat: 9:30 am -1 pm
Beaufort-Hyde-Martin Regional Library	Hazel W. Guilford Memorial Library	Public	524 Main St	Aurora	27806	Beaufort	https://bhmlib.org/	(252) 322-5046	Amanda Corbett	Robina Norman	"2,340"	1.50	Mon: 9 am-5 pm  Tue: 9 am-5 pm  Wed: 9 am-5 pm  Thu: 11 am-7 pm  Fri: 9 am-5 pm  Sat: 9 am-12 pm
Beaufort-Hyde-Martin Regional Library	Martin Memorial Library	Public	200 N Smithwick St	Williamston	27892	Martin	https://bhmlib.org/	(252) 792-7476	Amanda Corbett	Ann Phelps	"9,331"	3.70	Mon: 9:30 am-5:30 pm  Tue: 9:30 am-5:30 pm  Wed: 9:30 am-5:30 pm  Thu: 9:30 am-8 pm  Fri: 9:30 am-5:30 pm  Sat: 9:30 am-1 pm  Sun: 2 pm-5 pm
Beaufort-Hyde-Martin Regional Library	Ocracoke Branch Library	Public	225 Back Rd	Ocracoke	27960	Hyde	https://bhmlib.org/	(252) 928-4436	Amanda Corbett	Sundae Horn	"2,100"	0.65	Mon: 3 pm-7 pm  Tue: 3 pm-7 pm  Wed: 3 pm-8 pm  Thu: 3 pm-7 pm  Fri: 3 pm-7 pm  Sat: 9 am-1 pm 
Beaufort-Hyde-Martin Regional Library	Robersonville Public Library	Public	119 S Main St	Robersonville	27871	Martin	https://bhmlib.org/	(252) 795-3591	Amanda Corbett	Sallie Schautteet	"1,737"	1.80	Mon: 9 am-5 pm  Tue: 9 am-5 pm  Wed: 9 am-5 pm  Thu: 9 am-5 pm  Fri: 9 am-5 pm  Sat: 9 am-12 pm
Beaufort-Hyde-Martin Regional Library	Hyde County Public Library	Public	33460 US Hwy 264	Engelhard	27824	Hyde	https://bhmlib.org/	(252) 925-2222	Amanda Corbett	Gail Blake	"7,200"	0.60	Mon: 9:30 am-12:30 pm; 1 pm-5 pm Tue: 9:30 am-12:30 pm; 1 pm-5 pm Wed: 9:30 am-12:30 pm; 1 pm-5 pm Thu: 9:30 am-12:30 pm; 1 pm-5 pm Sat: 10 am-12:30 pm; 1 pm-4 pm
Bladen County Public Library	Bladen County Public Library (Main)	Public	111 N Cypress St	Elizabethtown	28337	Bladen	http://bladenco.libguides.com/home	(910) 862-6990	Kelsey Edwards	Kelsey Edwards	"12,066"	7.26	Mon: 8:30 am-6 pm  Tue: 8:30 am-8:30 pm  Wed: 8:30 am-6 pm  Thu: 8:30 am-8:30 pm  Fri: 8:30 am-6 pm  Sat: 8:30 am-12:30 pm
Bladen County Public Library	Bridger Memorial Library	Public	313 S Main St	Bladenboro	28320	Bladen	http://bladenco.libguides.com/home	(910) 863-4586	Kelsey Edwards	Kayla Parker	"1,350"	1.00	Mon: 9 am-12 pm; 1 pm-7 pm  Tue: 9 am-12 pm; 1 pm-6 pm  Wed: 1 pm-6 pm  Thu: 1 pm-6 pm  Fri: 1 pm-6 pm  
Bladen County Public Library	Bladen County Public Library Bookmobile	Public	111 N Cypress St	Elizabethtown	28337	Bladen	http://bladenco.libguides.com/home	(910) 862-6990	Kelsey Edwards	Cynthia Dowless	256	1.00	Varies
Bladen County Public Library	Clarkton Public Library	Public	10413 N College St	Clarkton	28433	Bladen	http://bladenco.libguides.com/home	(910) 647-3661	Kelsey Edwards	Greta Jackson	"1,716"	1.00	Mon: 9 am-12 pm; 1 pm-6 pm  Tue: 9 am-12 pm; 1 pm-7 pm  Wed: 1 pm-6 pm  Thu: 1 pm-6 pm  Fri: 1 pm-6 pm  
Braswell Memorial Library	Braswell Memorial Public Library (Main)	Public	727 N Grace St	Rocky Mount	27804	Nash	http://braswell-library.libguides.com/home	(252) 442-1951	Catie Roche	Catherine Roche	"60,000"	25.40	Mon: 10 am-8 pm  Tue: 10 am-8 pm  Wed: 10 am-8 pm  Thu: 10 am-8 pm  Fri: 10 am-6 pm  Sat: 10 am-6 pm
Braswell Memorial Library	Wesley Privette Memorial Library	Public	6280 Main St	Bailey	27807	Nash	http://braswell-library.libguides.com/home	(252) 235-6006	Catie Roche	Gloria Sutton	756	0.45	Tue: 12:30 pm-6 pm  Wed: 12:30 pm-6 pm  Thu: 9:30 am-3 pm 
Braswell Memorial Library	Whitakers Public Library	Public	106 W Pippen St	Whitakers	27891	Nash	http://braswell-library.libguides.com/home	(252) 437-0932	Catie Roche	Gloria Sutton	"1,053"	0.45	Tue: 1 pm-6:30 pm  Wed: 1 pm-6:30 pm  Thu: 1 pm-6:30 pm 
Braswell Memorial Library	Middlesex Public Library	Public	12480 W Hanes Ave	Middlesex	27557	Nash	http://braswell-library.libguides.com/home	(252) 235-6001	Catie Roche				Mon: 11:30 am-5 pm Tue: 11:30 am-5 pm Wed: 11:30 am-5 pm Thu: 11:30 am-5 pm Fri: 11:30 am-5 pm
Braswell Memorial Library	Spring Hope Public Library	Public	101 N Ash St	Spring Hope	27882	Nash	http://braswell-library.libguides.com/home	(252) 478-3377	Catie Roche				Mon: 1 pm-5 pm Tue: 1 pm-5 pm Wed: 1 pm-5 pm Thu: 1 pm-5 pm Fri: 1 pm-5 pm Sat: 9 am-1 pm
Brunswick County Library	Harper Library	Public	109 W Moore St	Southport	28461	Brunswick	http://www.brunswickcountync.gov/library/	(910) 457-6237	Maurice Tate	Denise Ballard	"7,157"	3.00	Mon: 9 am-6 pm  Tue: 9 am-6 pm  Wed: 9 am-6 pm  Thu: 9 am-6 pm  Fri: 9 am-6 pm 
Brunswick County Library	Leland Branch Library	Public	487 Village Rd	Leland	28451	Brunswick	http://www.brunswickcountync.gov/library/	(910) 371-9442	Maurice Tate	Lisa Milligan	"4,750"	3.00	Mon: 9 am-6 pm  Tue: 9 am-6 pm  Wed: 9 am-6 pm  Thu: 9 am-6 pm  Fri: 9 am-6 pm   Sat: 9 am-1 pm
Brunswick County Library	"G. V. Barbee, Sr. Library"	Public	8200 E Oak Island Dr	Oak Island	28465	Brunswick	http://www.brunswickcountync.gov/library/	(910) 278-4283	Maurice Tate	Erika Dosher	"4,732"	4.00	Mon: 9 am-6 pm  Tue: 9 am-6 pm  Wed: 9 am-6 pm  Thu: 9 am-6 pm  Fri: 9 am-6 pm   Sat: 9 am-1 pm
Brunswick County Library	Rourk Branch Library	Public	5068 Main St	Shallotte	28459	Brunswick	http://www.brunswickcountync.gov/library/	(910) 754-6578	Maurice Tate	Lois Carroll	"7,217"	3.00	Mon: 9 am-6 pm  Tue: 9 am-6 pm  Wed: 9 am-6 pm  Thu: 9 am-6 pm  Fri: 9 am-6 pm   Sat: 9 am-1 pm
Brunswick County Library	Southwest Brunswick Branch Library	Public	9400 Ocean Hwy West	Carolina Shores	28467	Brunswick	http://www.brunswickcountync.gov/library/	(910) 575-0173	Maurice Tate	Christi Iffergan	"10,000"	3.50	Mon: 9 am-6 pm  Tue: 9 am-6 pm  Wed: 9 am-6 pm  Thu: 9 am-6 pm  Fri: 9 am-6 pm
Buncombe County Public Libraries	Pack Memorial Library (Main)	Public	67 Haywood St	Asheville	28801	Buncombe	https://www.buncombecounty.org/governing/depts/library/	(828) 250-4700	Jim Blanton	Jim Blanton	"56,000"	21.00	Mon: 10 am-8 pm  Tue: 10 am-8 pm  Wed: 10 am-8 pm  Thu: 10 am-8 pm  Fri: 10 am-6 pm  Sat: 10 am-5 pm
Buncombe County Public Libraries	Black Mountain Branch Library	Public	105 Dougherty St	Black Mountain	28711	Buncombe	https://www.buncombecounty.org/governing/depts/library/	(828) 250-4756	Jim Blanton	Melisa Pressley	"5,694"	3.00	Mon: 10 am-6 pm  Tue: 10 am-8 pm  Wed: 10 am-6 pm  Thu: 10 am-6 pm  Fri: 10 am-6 pm  Sat: 10 am-5 pm
Buncombe County Public Libraries	Buncombe County Law Library	Public	60 Court Plz	Asheville	28801	Buncombe	https://www.buncombecounty.org/governing/depts/library/	(828) 250-4735	Jim Blanton	Ken Miller	"3,000"	0.00	Mon: 8 am-5 pm  Tue: 8 am-5 pm  Wed: 8 am-5 pm  Thu: 8 am-5 pm  Fri: 8 am-5 pm
Buncombe County Public Libraries	East Asheville Branch Library	Public	902 Tunnel Rd	Asheville	28805	Buncombe	https://www.buncombecounty.org/governing/depts/library/	(828) 250-4738	Jim Blanton	Alexandra Duncan	"2,717"	4.00	Tue: 9 am-8 pm  Wed: 9 am-6 pm  Thu: 9 am-8 pm  Fri: 9 am-6 pm  Sat: 9 am-5 pm
Buncombe County Public Libraries	Enka Branch Library	Public	1404 Sandhill Rd	Enka	28728	Buncombe	https://www.buncombecounty.org/governing/depts/library/	(828) 250-4758	Jim Blanton	Leisa Stamey	"4,800"	4.00	Mon: 10 am-6 pm  Tue: 10 am-8 pm  Wed: 10 am-6 pm  Thu: 10 am-6 pm  Fri: 10 am-6 pm  Sat: 10 am-5 pm
Buncombe County Public Libraries	Fairview Branch Library	Public	1 Taylor Rd	Fairview	28730	Buncombe	https://www.buncombecounty.org/governing/depts/library/	(828) 250-6484	Jim Blanton	Jaime McDowell	"7,500"	4.00	Mon: 10 am-6 pm  Tue: 10 am-8 pm  Wed: 10 am-6 pm  Thu: 10 am-6 pm  Fri: 10 am-6 pm  Sat: 10 am-5 pm
Buncombe County Public Libraries	Leicester Branch Library	Public	1561 Alexander Rd	Leicester	28748	Buncombe	https://www.buncombecounty.org/governing/depts/library/	(828) 250-6480	Jim Blanton	Regina Illig	"5,500"	3.00	Mon: 10 am-6 pm  Tue: 10 am-8 pm  Wed: 10 am-6 pm  Thu: 10 am-6 pm  Fri: 10 am-6 pm  Sat: 10 am-5 pm
Buncombe County Public Libraries	North Asheville Branch Library	Public	1230 Merrimon Ave	Asheville	28804	Buncombe	https://www.buncombecounty.org/governing/depts/library/	(828) 250-4752	Jim Blanton	Julie Niwinski	"7,800"	4.00	Mon: 10 am-6 pm  Tue: 10 am-8 pm  Wed: 10 am-6 pm  Thu: 10 am-8 pm  Fri: 10 am-6 pm  Sat: 10 am-5 pm
Buncombe County Public Libraries	South Asheville Branch Library	Public	749 Fairview Rd	Asheville	28803	Buncombe	https://www.buncombecounty.org/governing/depts/library/	(828) 250-4754	Jim Blanton	Cheryl Middleton	"2,980"	2.00	Tue: 9 am-8 pm  Wed: 9 am-6 pm  Thu: 9 am-8 pm  Fri: 9 am-6 pm  Sat: 9 am-5 pm
Buncombe County Public Libraries	South Buncombe - Skyland Library	Public	260 Overlook Rd	Skyland	28776	Buncombe	https://www.buncombecounty.org/governing/depts/library/	(828) 250-6488	Jim Blanton	Anna Booraem	"7,800"	4.00	Mon: 10 am-6 pm  Tue: 10 am-8 pm  Wed: 10 am-6 pm  Thu: 10 am-6 pm  Fri: 10 am-6 pm  Sat: 10 am-5 pm
Buncombe County Public Libraries	Swannanoa Branch Library	Public	101 W Charleston St	Swannonoa	28778	Buncombe	https://www.buncombecounty.org/governing/depts/library/	(828) 250-6486	Jim Blanton	Carla Hollar	"1,212"	1.00	Tue: 10 am-8 pm  Wed: 10 am-6 pm  Thu: 10 am-6 pm  Fri: 10 am-6 pm  Sat: 10 am-2 pm
Buncombe County Public Libraries	Weaverville Library	Public	41 N Main St	Weaverville	28787	Buncombe	https://www.buncombecounty.org/governing/depts/library/	(828) 250-6482	Jim Blanton	Jill Totman	"8,000"	3.00	Mon: 10 am-6 pm  Tue: 10 am-8 pm  Wed: 10 am-6 pm  Thu: 10 am-6 pm  Fri: 10 am-6 pm  Sat: 10 am-5 pm
Buncombe County Public Libraries	West Asheville Branch Library	Public	942 Haywood Rd	Asheville	28806	Buncombe	https://www.buncombecounty.org/governing/depts/library/	(828) 250-4750	Jim Blanton	Sherry Roane	"5,800"	5.00	Mon: 10 am-6 pm  Tue: 10 am-8 pm  Wed: 10 am-6 pm  Thu: 10 am-6 pm  Fri: 10 am-6 pm  Sat: 10 am-5 pm
Burke County Public Library	Burke County Public Library (Main)	Public	204 S King St	Morganton	28655	Burke	http://www.bcpls.org/	(828) 764-9260	Jim Wilson	Jim Wilson	"18,000"	13.25	Mon: 9 am-8 pm  Tue: 9 am-6 pm  Wed: 9 am-8 pm  Thu: 9 am-6 pm  Fri: 9 am-6 pm  Sat: 9 am-5 pm
Burke County Public Library	C. B. Hildebrand Public Library	Public	101B Main Ave West	Hildebran	28637	Burke	http://www.bcpls.org/	(828) 764-9283	Jim Wilson	Judy Annas	"2,000"	2.20	Mon: 8 am-8 pm  Tue: 8 am-6 pm  Wed: 8 am-6 pm  Thu: 8 am-6 pm  Fri: 8 am-6 pm  Sat: 9 am-5 pm
Burke County Public Library	Valdese Public Library	Public	213 Saint Germain Ave Se	Valdese	28690	Burke	http://www.bcpls.org/	(828) 874-2421	Jim Wilson	Page Andersen	"6,200"	5.60	Mon: 9 am-8 pm  Tue: 9 am-6 pm  Wed: 9 am-8 pm  Thu: 9 am-6 pm  Fri: 9 am-6 pm  Sat: 9 am-5 pm
Cabarrus County Public Library	Cabarrus County Public Library (Main)	Public	27 Union St N	Concord	28025	Cabarrus	https://www.cabarruscounty.us/departments/library	(704) 920-2050	Emery Ortiz	Kyle White	"26,280"	25.45	Mon: 9 am-8 pm  Tue: 9 am-8 pm  Wed: 9 am-8 pm  Thu: 9 am-8 pm  Fri: 10 am-6 pm  Sat: 10 am-6 pm 
Cabarrus County Public Library	Kannapolis Branch Library	Public	850 Mountain St	Kannapolis	28081	Cabarrus	https://www.cabarruscounty.us/departments/library	(704) 920-1180	Emery Ortiz	Christie Reale	"15,000"	12.00	Mon: 9 am-8 pm  Tue: 9 am-8 pm  Wed: 9 am-8 pm  Thu: 9 am-8 pm  Fri: 10 am-6 pm  Sat: 10 am-6 pm 
Cabarrus County Public Library	Mt. Pleasant Branch Library	Public	8556 Cook St	Mount Pleasant	28124	Cabarrus	https://www.cabarruscounty.us/departments/library	(704) 920-2202	Emery Ortiz	Amy Kendrick	"3,780"	4.25	Mon: 9 am-7 pm  Tue: 9 am-7 pm  Wed: 9 am-7 pm  Thu: 9 am-7 pm  Fri: 10 am-5 pm  Sat: 10 am-5 pm 
Cabarrus County Public Library	Harrisburg Library	Public	201 Sims Pkwy	Harrisburg	28075	Cabarrus	https://www.cabarruscounty.us/departments/library	(704) 920-2080	Emery Ortiz	Davey Beauchamp	"10,000"	6.80	Mon: 9 am-8 pm  Tue: 9 am-8 pm  Wed: 9 am-8 pm  Thu: 9 am-8 pm  Fri: 10 am-6 pm  Sat: 10 am-6 pm 
Caldwell County Public Library	Caldwell County Public Library (Main)	Public	120 Hospital Ave	Lenoir	28645	Caldwell	http://ccpl.libguides.com/mainpage	(828) 757-1270	Lesley Mason	Lesley Mason	"52,600"	13.00	Mon: 9 am-8 pm Tue: 9 am-8 pm Wed: 9 am-5:30 pm Thu: 9 am-8 pm Fri: 9 am-5:30 pm Sat: 9 am-5:30 pm
Caldwell County Public Library	Granite Falls Branch Library	Public	24 S Main St	Granite Falls	28630	Caldwell	http://ccpl.libguides.com/mainpage	(828) 396-7703	Lesley Mason	Susan Clark	"2,864"	3.00	Mon: 9 am-5:30 pm Tue: 9 am-5:30 pm Wed: 9 am-5:30 pm Thu: 11:30 am-8 pm Fri: 9 am-5:30 pm Sat: 9 am-5:30 pm
Caldwell County Public Library	Hudson Branch Library	Public	530 Central St	Hudson	28638	Caldwell	http://ccpl.libguides.com/mainpage	(828) 728-4207	Lesley Mason	Susan Clark	"2,850"	3.00	Mon: 9 am-5:30 pm Tue: 11:30 am-8 pm Wed: 9 am-5:30 pm Thu: 9 am-5:30 pm Fri: 9 am-5:30 pm
Caswell County Public Library	Gunn Memorial Public Library	Public	118 W Main St	Yanceyville	27379	Caswell	http://www.caswellcountync.gov/pview.aspx?id=9385&catID=600	(336) 694-6241	Rhonda Griffin	Rhonda H. Griffin	"7,584"	6.02	Mon: 9 am-7 pm  Tue: 9 am-6 pm  Wed: 9 am-6 pm  Thu: 9 am-7 pm  Fri: 9 am-5 pm  Sat: 10 am-1 pm
Catawba County Library	Conover Branch Library	Public	403 Conover Station Se	Conover	28613	Catawba	https://www.catawbacountync.gov/county-services/library/	(828) 466-5108	Suzanne White	Stephanie Abbott	"3,200"	2.00	Tue: 12 pm-8 pm  Wed: 9 am-6 pm  Thu: 9 am-6 pm  Fri: 9 am-6 pm  Sat: 9 am-2 pm
Catawba County Library	Catawba County Library (Main)	Public	115 W C St	Newton	28658	Catawba	https://www.catawbacountync.gov/county-services/library/	(828) 465-8664	Suzanne White	Siobhan Loendorf	"30,000"	16.50	Mon: 9 am-8 pm  Tue: 9 am-8 pm  Wed: 9 am-8 pm  Thu: 9 am-8 pm  Fri: 9 am-6 pm  Sat: 9 am-6 pm
Catawba County Library	Maiden Branch Library	Public	11 S A Ave	Maiden	28650	Catawba	https://www.catawbacountync.gov/county-services/library/	(828) 428-2712	Suzanne White	Phillip Overholtzer	"2,800"	1.50	Tue: 12 pm-8 pm  Wed: 9 am-6 pm  Thu: 9 am-6 pm  Fri: 9 am-6 pm  Sat: 9 am-2 pm
Catawba County Library	Sherrills Ford-Terrell Branch	Public	9154 Sherrills Ford Rd	Terrell	28682	Catawba	https://www.catawbacountync.gov/county-services/library/	(828) 466-6827	Suzanne White	Jenny Gerami-Markham	"2,675"	5.00	Mon: 12 pm-8 pm  Tue: 12 pm-8 pm  Wed: 9 am-6 pm  Thu: 9 am-6 pm  Fri: 9 am-6 pm  Sat: 9 am-6 pm
Catawba County Library	Southwest Branch Library	Public	2944 S NC 127 Hwy	Hickory	28602	Catawba	https://www.catawbacountync.gov/county-services/library/	(828) 466-6818	Suzanne White	April Green	"7,965"	3.00	Mon: 12 pm-8 pm  Tue: 12 pm-8 pm  Wed: 9 am-6 pm  Thu: 9 am-6 pm  Fri: 9 am-6 pm  Sat: 9 am-2 pm
Catawba County Library	St. Stephens Branch Library	Public	3225 Springs Rd	Hickory	28601	Catawba	https://www.catawbacountync.gov/county-services/library/	(828) 466-6821	Suzanne White	Debbie Hosford	"9,035"	5.00	Mon: 12 pm-8 pm  Tue: 12 pm-8 pm  Wed: 9 am-6 pm  Thu: 9 am-6 pm  Fri: 9 am-6 pm  
Catawba County Library	Claremont Branch Library	Public	3288 E Main St	Claremont	28610	Catawba	https://www.catawbacountync.gov/county-services/library/	(828) 466-6817	Suzanne White	Stephanie Abbott	"2,400"	0.80	Tue: 12 pm-6 pm  Wed: 12 pm-6 pm  Thu: 12 pm-6 pm  Fri: 12 pm-6 pm  Sat: 9 am-2 pm
Chapel Hill Public Library	Chapel Hill Public Library	Public	100 Library Dr	Chapel Hill	27514	Orange	https://chapelhillpubliclibrary.org/	(919) 968-2777	Susan Brown	Susan Brown	"63,305"	34.28	Mon: 9 am-8 pm  Tue: 9 am-8 pm  Wed: 9 am-8 pm  Thu: 9 am-8 pm  Fri: 9 am-6 pm  Sat: 10 am-6 pm Sun: 10 am-6 pm
Charlotte Mecklenburg Library	Beatties Ford Road Regional Library	Public	2412 Beatties Ford Rd	Charlotte	28216	Mecklenburg	https://www.cmlibrary.org/	(704) 416-3000	Dana Eure (Interim)	Alecia Mitchell	"19,400"	21.95	Mon: 9 am-8 pm  Tue: 9 am-8 pm  Wed: 9 am-8 pm  Thu: 9 am-8 pm  Fri: 9 am-5 pm  Sat: 9 am-5 pm  Sun: (Labor Day-Memorial Day) 1 pm-5 pm
Charlotte Mecklenburg Library	Cornelius Branch Library	Public	21105 Catawba Ave	Cornelius	28031	Mecklenburg	https://www.cmlibrary.org/	(704) 416-3800	Dana Eure (Interim)	Ellen Giduz	"5,500"	6.43	Mon: 9 am-8 pm  Tue: 9 am-8 pm  Wed: 9 am-8 pm  Thu: 9 am-8 pm  Fri: 9 am-5 pm  Sat: 9 am-5 pm
Charlotte Mecklenburg Library	Davidson Branch Library	Public	119 S Main St	Davidson	28036	Mecklenburg	https://www.cmlibrary.org/	(704) 416-4000	Dana Eure (Interim)	Ellen Giduz	"6,000"	5.43	Mon: 9 am-8 pm  Tue: 9 am-8 pm  Wed: 9 am-8 pm  Thu: 9 am-8 pm  Fri: 9 am-5 pm  Sat: 9 am-5 pm
Charlotte Mecklenburg Library	Hickory Grove Branch Library	Public	5935 Hickory Grove Rd	Charlotte	28215	Mecklenburg	https://www.cmlibrary.org/	(704) 416-4400	Dana Eure (Interim)	Debra Sharp	"16,000"	12.43	Mon: 9 am-8 pm  Tue: 9 am-8 pm  Wed: 9 am-8 pm  Thu: 9 am-8 pm  Fri: 9 am-5 pm  Sat: 9 am-5 pm
Charlotte Mecklenburg Library	Imaginon: The Joe & Joan Martin Center	Public	300 E 7th St	Charlotte	28202	Mecklenburg	https://www.cmlibrary.org/	(704) 416-4600	Dana Eure (Interim)	Angela Craig	"102,000"	27.63	Mon: 9 am-8 pm  Tue: 9 am-8 pm  Wed: 9 am-8 pm  Thu: 9 am-8 pm  Fri: 9 am-5 pm  Sat: 9 am-5 pm  Sun: (Labor Day-Memorial Day) 1 pm-5 pm
Charlotte Mecklenburg Library	Independence Regional Library	Public	6015 Conference Dr	Charlotte	28212	Mecklenburg	https://www.cmlibrary.org/	(704) 416-4800	Dana Eure (Interim)	Kevin Bittle	"18,670"	22.23	Mon: 9 am-8 pm  Tue: 9 am-8 pm  Wed: 9 am-8 pm  Thu: 9 am-8 pm  Fri: 9 am-5 pm  Sat: 9 am-5 pm  Sun: (Labor Day-Memorial Day) 1 pm-5 pm
Charlotte Mecklenburg Library	Charlotte Mecklenburg Library (Main)	Public	310 N Tryon St	Charlotte	28202	Mecklenburg	https://www.cmlibrary.org/	(704) 416-0600	Dana Eure (Interim)	Angela Craig	"156,000"	100.80	Mon: 9 am-8 pm  Tue: 9 am-8 pm  Wed: 9 am-8 pm  Thu: 9 am-8 pm  Fri: 9 am-5 pm  Sat: 9 am-5 pm  Sun: (Labor Day-Memorial Day) 1 pm-5 pm
Charlotte Mecklenburg Library	Matthews Branch Library	Public	230 Matthews Station St	Matthews	28105	Mecklenburg	https://www.cmlibrary.org/	(704) 416-5000	Dana Eure (Interim)	Julia Smith	"15,000"	18.43	Mon: 9 am-8 pm  Tue: 9 am-8 pm  Wed: 9 am-8 pm  Thu: 9 am-8 pm  Fri: 9 am-5 pm  Sat: 9 am-5 pm
Charlotte Mecklenburg Library	Mint Hill Branch Library	Public	6840 Matthews-Mint Hill Rd	Charlotte	28227	Mecklenburg	https://www.cmlibrary.org/	(704) 416-5200	Dana Eure (Interim)	Jesse Isley	"12,000"	15.05	Mon: 9 am-8 pm  Tue: 9 am-8 pm  Wed: 9 am-8 pm  Thu: 9 am-8 pm  Fri: 9 am-5 pm  Sat: 9 am-5 pm
Charlotte Mecklenburg Library	Morrison Regional Library	Public	7015 Morrison Blvd	Charlotte	28211	Mecklenburg	https://www.cmlibrary.org/	(704) 416-5400	Dana Eure (Interim)	Susan Green	"24,000"	24.45	Mon: 9 am-8 pm  Tue: 9 am-8 pm  Wed: 9 am-8 pm  Thu: 9 am-8 pm  Fri: 9 am-5 pm  Sat: 9 am-5 pm  Sun: (Labor Day-Memorial Day) 1 pm-5 pm
Charlotte Mecklenburg Library	Mountain Island Branch Library	Public	4420 Hoyt Galvin Wy	Charlotte	28214	Mecklenburg	https://www.cmlibrary.org/	(704) 416-5600	Dana Eure (Interim)	Catherine Haydon	"16,000"	13.10	Mon: 9 am-8 pm  Tue: 9 am-8 pm  Wed: 9 am-8 pm  Thu: 9 am-8 pm  Fri: 9 am-5 pm  Sat: 9 am-5 pm
Charlotte Mecklenburg Library	Myers Park Branch Library	Public	1361 Queens Rd	Charlotte	28207	Mecklenburg	https://www.cmlibrary.org/	(704) 416-5800	Dana Eure (Interim)	Trilby Meeks	"3,969"	6.10	Mon: 9 am-8 pm  Tue: 9 am-8 pm  Wed: 9 am-8 pm  Thu: 9 am-8 pm  Fri: 9 am-5 pm  Sat: 9 am-5 pm
Charlotte Mecklenburg Library	North County Regional Library	Public	16500 Holly Crest Ln	Huntersville	28078	Mecklenburg	https://www.cmlibrary.org/	(704) 416-6000	Dana Eure (Interim)	Jo Ann Rodgers	"23,728"	22.48	Mon: 9 am-8 pm  Tue: 9 am-8 pm  Wed: 9 am-8 pm  Thu: 9 am-8 pm  Fri: 9 am-5 pm  Sat: 9 am-5 pm  Sun: (Labor Day-Memorial Day) 1 pm-5 pm
Charlotte Mecklenburg Library	Plaza Midwood Branch Library	Public	1623 Central Ave	Charlotte	28205	Mecklenburg	https://www.cmlibrary.org/	(704) 416-6200	Dana Eure (Interim)	Mark Engelbrecht	"8,000"	7.58	Mon: 9 am-8 pm  Tue: 9 am-8 pm  Wed: 9 am-8 pm  Thu: 9 am-8 pm  Fri: 9 am-5 pm  Sat: 9 am-5 pm
Charlotte Mecklenburg Library	Scaleybark Branch Library	Public	101 Scaleybark Rd	Charlotte	28209	Mecklenburg	https://www.cmlibrary.org/	(704) 416-6400	Dana Eure (Interim)	Beatriz Guevara	"5,450"	8.05	Mon: 9 am-8 pm  Tue: 9 am-8 pm  Wed: 9 am-8 pm  Thu: 9 am-8 pm  Fri: 9 am-5 pm  Sat: 9 am-5 pm
Charlotte Mecklenburg Library	South County Regional Library	Public	5801 Rea Rd	Charlotte	28277	Mecklenburg	https://www.cmlibrary.org/	(704) 416-6600	Dana Eure (Interim)	Laura Highfill	"34,000"	33.65	Mon: 9 am-8 pm  Tue: 9 am-8 pm  Wed: 9 am-8 pm  Thu: 9 am-8 pm  Fri: 9 am-5 pm  Sat: 9 am-5 pm  Sun: (Labor Day-Memorial Day) 1 pm-5 pm
Charlotte Mecklenburg Library	Steele Creek Branch Library	Public	13620 Steele Creek Rd	Charlotte	28273	Mecklenburg	https://www.cmlibrary.org/	(704) 416-6800	Dana Eure (Interim)	Rhonda Pinkney	"14,910"	15.43	Mon: 9 am-8 pm  Tue: 9 am-8 pm  Wed: 9 am-8 pm  Thu: 9 am-8 pm  Fri: 9 am-5 pm  Sat: 9 am-5 pm
Charlotte Mecklenburg Library	Sugar Creek Branch Library	Public	4045 N Tryon St	Charlotte	28206	Mecklenburg	https://www.cmlibrary.org/	(704) 416-7000	Dana Eure (Interim)	Anne Masters	"9,300"	12.40	Mon: 9 am-8 pm  Tue: 9 am-8 pm  Wed: 9 am-8 pm  Thu: 9 am-8 pm  Fri: 9 am-5 pm  Sat: 9 am-5 pm
Charlotte Mecklenburg Library	University City Regional Library	Public	301 E W T Harris Rd	Charlotte	28262	Mecklenburg	https://www.cmlibrary.org/	(704) 416-7200	Dana Eure (Interim)	Jonita Edmonds	"24,000"	30.85	Mon: 9 am-8 pm  Tue: 9 am-8 pm  Wed: 9 am-8 pm  Thu: 9 am-8 pm  Fri: 9 am-5 pm  Sat: 9 am-5 pm  Sun: (Labor Day-Memorial Day) 1 pm-5 pm
Charlotte Mecklenburg Library	West Boulevard Branch Library	Public	2157 West Blvd	Charlotte	28208	Mecklenburg	https://www.cmlibrary.org/	(704) 416-7400	Dana Eure (Interim)	LaJuan Pringle	"12,500"	11.95	Mon: 9 am-8 pm  Tue: 9 am-8 pm  Wed: 9 am-8 pm  Thu: 9 am-8 pm  Fri: 9 am-5 pm  Sat: 9 am-5 pm
Chatham County Public Libraries	Goldston Public Library	Public	9235 Pittsboro-Goldston Rd	Goldston	27252	Chatham	http://www.chathamnc.org/government/departments-programs/library	(919) 898-4522	Linda Clarke	Sharon Brewer	"3,300"	1.00	Mon: 10 am-1 pm; 2 pm-6 pm  Wed: 10 am-1 pm; 2 pm-6 pm  Thu: 10 am-1 pm; 2 pm-8 pm  Fri: 10 am-1 pm; 2 pm-5 pm  Sat: 9 am-1 pm
Chatham County Public Libraries	Chatham Community Library (Main)	Public	197 NC Hwy 87 N	Pittsboro	27312	Chatham	http://www.chathamnc.org/government/departments-programs/library	(919) 545-8084	Linda Clarke	Rita Van Duinen	"25,000"	8.00	Mon: 9 am-8 pm  Tue: 9 am-8 pm  Wed: 9 am-8 pm  Thu: 9 am-8 pm  Fri: 9 am-6 pm  Sat: 9 am-5 pm
Chatham County Public Libraries	Wren Memorial Library	Public	500 N 2nd Ave	Siler City	27344	Chatham	http://www.chathamnc.org/government/departments-programs/library	(919) 742-2016	Linda Clarke	Mike Cowell	"6,700"	2.75	Mon: 12 pm-8 pm  Tue: 10 am-6 pm  Wed: 10 am-6 pm  Thu: 10 am-6 pm  Fri: 10 am-6 pm  Sat: 9 am-5 pm
Cleveland County Library System	Cleveland County Memorial Library (Main)	Public	104 Howie Dr	Shelby	28150	Cleveland	http://ccml.org/ccml/	(704) 487-9069	Carol H. Wilson	Carol H. Wilson	"27,000"	16.75	Mon: 10 am-8 pm  Tue: 10 am-8 pm  Wed: 10 am-8 pm  Thu: 10 am-8 pm  Fri: 10 am-2 pm  Sat: 10 am-2 pm
Cleveland County Library System	Spangler Branch Library	Public	112 Piedmont Dr	Lawndale	28090	Cleveland	http://ccml.org/ccml/	(704) 538-7005	Carol H. Wilson	Deborah Page	"2,000"	1.50	Mon: 2 pm-6 pm  Tue: 2 pm-6 pm  Wed: 2 pm-6 pm  Thu: 9 am-6 pm  Sat: 9 am-1 pm
Columbus County Public Library	Chadbourn Community Library	Public	301 N Wilson St	Chadbourn	28431	Columbus	https://ccplnc.weebly.com/	(910) 654-3322	Morris Pridgen Jr	Shenna Milliken	"3,200"	2.00	Mon: 11 am-5 pm  Tue: 11 am-5 pm  Wed: 11 am-5 pm  Thu: 11 am-5 pm  Fri: 11 am-5 pm
Columbus County Public Library	Columbus County Public Library (Main)	Public	407 N JK Powell Blvd	Whiteville	28472	Columbus	https://ccplnc.weebly.com/	(910) 642-3116	Morris Pridgen Jr	"Morris Pridgen, Jr."	"10,600"	15.00	Mon: 9 am-7:30 pm  Tue: 9 am-7:30 pm  Wed: 9 am-7:30 pm  Thu: 9 am-7;30 pm  Fri: 9 am-5 pm  Sat: 10:30 am-5pm
Columbus County Public Library	Columbus County Public Library Bookmobile	Public	407 N JK Powell Blvd	Whiteville	28472	Columbus	https://ccplnc.weebly.com/	(910) 640-2665	Morris Pridgen Jr	Gale Sellers	180	2.00	Varies
Columbus County Public Library	East Columbus Branch Library	Public	103 Church Rd	Riegelwood	28456	Columbus	https://ccplnc.weebly.com/	(910) 655-4157	Morris Pridgen Jr	Robin Creech	"2,302"	2.00	Mon: 11 am-5 pm  Tue: 11 am-5 pm  Wed: 11 am-5 pm  Thu: 11 am-5 pm  Fri: 11 am-5 pm
Columbus County Public Library	Fair Bluff Community Library	Public	315 Railroad St	Fair Bluff	28439	Columbus	https://ccplnc.weebly.com/	(910) 649-7098	Morris Pridgen Jr	Theresa Fountain	"2,200"	1.50	Mon: 11 am-5 pm  Tue: 11 am-5 pm  Wed: 11 am-5 pm  Thu: 11 am-5 pm  Fri: 11 am-5 pm
Columbus County Public Library	Rube Mccray Memorial Library	Public	301 Fleming Dr	Lake Waccamaw	28450	Columbus	https://ccplnc.weebly.com/	(910) 646-4616	Morris Pridgen Jr	Kim Holmes	"2,992"	2.00	Mon: 11 am-5 pm  Tue: 11 am-5 pm  Wed: 11 am-5 pm  Thu: 11 am-5 pm  Fri: 11 am-5 pm
Columbus County Public Library	Tabor City Public Library	Public	1 E 5th St	Tabor City	28463	Columbus	https://ccplnc.weebly.com/	(910) 653-3774	Morris Pridgen Jr	Judy Powell	"2,992"	2.00	Mon: 11 am-5 pm  Tue: 11 am-5 pm  Wed: 11 am-5 pm  Thu: 11 am-5 pm  Fri: 11 am-5 pm
Craven-Pamlico-Carteret Regional Library	Bogue Banks Public Library	Public	320 Salter Path Rd	Pine Knoll Shores	28512	Carteret	https://cpcrl.org/	(252) 247-4660	Susan W. Simpson	Susan W. Simpson	"3,256"	2.76	Mon: 8:30 am-5 pm  Tue: 8:30 am-5 pm  Wed: 8:30 am-5 pm  Thu: 8:30 am-5 pm  Fri: 8:30 am-5 pm  Sat: 8:30 am-5 pm
Craven-Pamlico-Carteret Regional Library	Carteret County Public Library	Public	1702 Live Oak St. Suite 100	Beaufort	28516	Carteret	https://cpcrl.org/	(252) 728-2050	Susan W. Simpson	Susan W. Simpson	"14,979"	10.64	Mon: 8:30 am-9 pm  Tue: 8:30 am-9 pm  Wed: 8:30 am-9 pm  Thu: 8:30 am-9 pm  Fri: 8:30 am-6 pm  Sat: 8:30 am-5 pm
Craven-Pamlico-Carteret Regional Library	Cove City-Craven County Public Library	Public	102 N Main St	Cove City	28523	Craven	https://cpcrl.org/	(252) 638-6363	Susan W. Simpson	Nancy Chase	"3,400"	1.92	Mon: 2 pm-8 pm  Tue: 2 pm-8 pm  Wed: 2 pm-8 pm  Thu: 2 pm-8 pm  Fri: 2 pm-6 pm
Craven-Pamlico-Carteret Regional Library	Down East Public Library	Public	702 Hwy 70 E Otway	Beaufort	28516	Carteret	https://cpcrl.org/	(252) 728-1333	Susan W. Simpson	Tia Douglass	"2,000"	1.47	Mon: 9 am-6 pm  Wed: 9 am-8 pm  Fri: 9 am-6 pm  Sat: 10 am-2 pm
Craven-Pamlico-Carteret Regional Library	Havelock-Craven County Public	Public	301 Cunningham Blvd	Havelock	28532	Craven	https://cpcrl.org/	(252) 447-7509	Susan W. Simpson	Shannon Sutton	"7,214"	4.90	Mon: 10 am-8 pm  Tue: 10 am-8 pm  Wed: 10 am-8 pm  Thu: 10 am-6 pm  Fri: 10 am-6 pm  Sat: 10 am-4 pm
Craven-Pamlico-Carteret Regional Library	New Bern-Craven County Public Library	Public	400 Johnson St	New Bern	28560	Craven	https://cpcrl.org/	(252) 638-7800	Susan W. Simpson	Cassandra Hunsucker	"26,200"	28.40	Mon: 9 am-9 pm  Tue: 9 am-9 pm  Wed: 9 am-9 pm  Thu: 9 am-9 pm  Fri: 9 am-6 pm  Sat: 9 am-6 pm  Sun: (Labor Day-Memorial Day) 2 pm-6 pm
Craven-Pamlico-Carteret Regional Library	Newport Public Library	Public	210 Howard Blvd	Newport	28570	Carteret	https://cpcrl.org/	(252) 223-5108	Susan W. Simpson	Alice Chavez	"4,427"	5.00	Mon: 9 am-8 pm  Tue: 9 am-8 pm  Wed: 9 am-8 pm  Thu: 9 am-8 pm  Fri: 9 am-6 pm  Sat: 9 am-4 pm
Craven-Pamlico-Carteret Regional Library	Pamlico County Library	Public	603 Main St	Bayboro	28515	Pamlico	https://cpcrl.org/	(252) 745-3515	Susan W. Simpson	Katherine Clowers	"7,370"	4.49	Mon: 12 pm-8 pm  Tue: 12 pm-8 pm  Wed: 9 am-8 pm  Thu: 9 am-8 pm  Fri: 10 am-6 pm  Sat: 10 am-2 pm
Craven-Pamlico-Carteret Regional Library	Vanceboro-Craven County Public Library	Public	7931 Main St	Vanceboro	28586	Craven	https://cpcrl.org/	(252) 244-0571	Susan W. Simpson	Angela Howard	"3,000"	4.02	Mon: 10 am-6 pm  Tue: 2 pm-8 pm  Wed: 10 am-6 pm  Thu: 2 pm-8 pm  Fri: 10 am-6 pm
Craven-Pamlico-Carteret Regional Library	Western Carteret Library	Public	230 Taylor Notion Rd	Cape Carteret	28584	Carteret	https://cpcrl.org/	(252) 393-6500	Susan W. Simpson	Timothy Nolin	"7,845"	6.75	Mon: 8:30 am-6 pm Tue: 8:30 am-8 pm Wed: 8:30 am-6 pm Thu: 8:30 am-8 pm Fri: 8:30 am-6 pm Sat: 8:30 am-5 pm
Cumberland County Public Library & Information Center	Bordeaux Branch Library	Public	3711 Village Dr	Fayetteville	28304	Cumberland	http://www.cumberland.lib.nc.us/ccplsite/	(910) 424-4008	Jody Risacher	Mary Dirisio	"10,000"	11.68	Mon: 9 am-8 pm  Tue: 9 am-8 pm  Wed: 9 am-6 pm  Thu: 9 am-6 pm  Fri: 10 am-6 pm  Sat: 10 am-6 pm
Cumberland County Public Library & Information Center	Cliffdale Branch Library	Public	6882 Cliffdale Rd	Fayetteville	28314	Cumberland	http://www.cumberland.lib.nc.us/ccplsite/	(910) 864-3800	Jody Risacher	Nadia El Anani	"17,115"	23.80	Mon: 9 am-8 pm  Tue: 9 am-8 pm  Wed: 9 am-8 pm  Thu: 9 am-8 pm  Fri: 9 am-6 pm  Sat: 9 am-5 pm  Sun: 1 pm-6 pm
Cumberland County Public Library & Information Center	Cumberland County Public Library & Information Center (Main)	Public	300 Maiden Ln	Fayetteville	28301	Cumberland	http://www.cumberland.lib.nc.us/ccplsite/	(910) 483-7727	Jody Risacher	Jane Casto	"80,000"	66.58	Mon: 9 am-8 pm  Tue: 9 am-8 pm  Wed: 9 am-8 pm  Thu: 9 am-8 pm  Fri: 9 am-6 pm  Sat: 9 am-5 pm  Sun: 1 pm-6 pm
Cumberland County Public Library & Information Center	East Regional Branch Library	Public	4809 Clinton Rd	Fayetteville	28312	Cumberland	http://www.cumberland.lib.nc.us/ccplsite/	(910) 485-2955	Jody Risacher	Birch Barnes	"21,000"	16.85	Mon: 9 am-8 pm  Tue: 9 am-8 pm  Wed: 9 am-8 pm  Thu: 9 am-8 pm  Fri: 10 am-6 pm  Sat: 10 am-6 pm
Cumberland County Public Library & Information Center	Hope Mills Branch Library	Public	3411 Golfview Rd	Hope Mills	28348	Cumberland	http://www.cumberland.lib.nc.us/ccplsite/	(910) 425-8455	Jody Risacher	Maryanne Sommer	"11,250"	15.18	Mon: 9 am-8 pm  Tue: 9 am-8 pm  Wed: 9 am-8 pm  Thu: 9 am-8 pm  Fri: 9 am-6 pm  Sat: 9 am-5 pm
Cumberland County Public Library & Information Center	North Regional Branch Library	Public	855 McArthur Rd	Fayetteville	28311	Cumberland	http://www.cumberland.lib.nc.us/ccplsite/	(910) 822-1998	Jody Risacher	Mary Campbell	"24,000"	22.30	Mon: 9 am-8 pm  Tue: 9 am-8 pm  Wed: 9 am-8 pm  Thu: 9 am-8 pm  Fri: 9 am-6 pm  Sat: 9 am-5 pm  Sun: 1 pm-6 pm
Cumberland County Public Library & Information Center	Spring Lake Branch Library	Public	101 Laketree Blvd	Spring Lake	28390	Cumberland	http://www.cumberland.lib.nc.us/ccplsite/	(910) 497-3650	Jody Risacher	Gloria Nelson	"12,000"	11.60	Mon: 9 am-6 pm  Tue: 9 am-6 pm  Wed: 9 am-6 pm  Thu: 9 am-7 pm  Sat: 10 am-6 pm
Cumberland County Public Library & Information Center	West Regional Branch Library	Public	7469 Century Cir	Fayetteville	28306	Cumberland	http://www.cumberland.lib.nc.us/ccplsite/	(910) 487-0440	Jody Risacher	Mark Wilson	"14,875"	14.83	Mon: 9 am-8 pm  Tue: 9 am-8 pm  Wed: 9 am-6 pm  Thu: 9 am-6 pm  Fri: 10 am-6 pm  Sat: 10 am-6 pm
Davidson County Public Library System	Lexington Public Library (Main)	Public	602 S Main St	Lexington	27292	Davidson	https://www.co.davidson.nc.us/274/Library	(336) 242-2040	Ruth Ann Copley	Sheila Killebrew	"20,000"	21.55	Mon: 9 am-8 pm  Tue: 9 am-8 pm  Wed: 9 am-8 pm  Thu: 9 am-8 pm  Fri: 9 am-5:30 pm  Sat: 9:30 am-3 pm 
Davidson County Public Library System	Denton Public Library	Public	310 W Salisbury St	Denton	27239	Davidson	https://www.co.davidson.nc.us/274/Library	(336) 859-2215	Ruth Ann Copley	Susan Craven	"11,500"	6.90	Mon: 9 am-8 pm  Tue: 9 am-6 pm  Wed: 9 am-6 pm  Thu: 9 am-8 pm  Fri: 9 am-5:30 pm  Sat: 10 am-2 pm 
Davidson County Public Library System	Davidson County Bookmobile	Public	602 S Main St	Lexington	27292	Davidson	https://www.co.davidson.nc.us/274/Library	(336) 242-2040	Ruth Ann Copley	Jennifer Ward	"1,530"	1.00	Varies
Davidson County Public Library System	North Davidson Branch Library	Public	559 Critcher Dr	Welcome	27374	Davidson	https://www.co.davidson.nc.us/274/Library	(336) 242-2050	Ruth Ann Copley	Jonathan Farlow	"9,312"	7.29	Mon: 9 am-8 pm  Tue: 9 am-6 pm  Wed: 9 am-6 pm  Thu: 9 am-8 pm  Fri: 9 am-5:30 pm  Sat: 10 am-2 pm 
Davidson County Public Library System	Thomasville Public Library	Public	14 Randolph St	Thomasville	27360	Davidson	https://www.co.davidson.nc.us/274/Library	(336) 474-2690	Ruth Ann Copley	Sarah Hudson	"19,150"	12.67	Mon: 9 am-8 pm  Tue: 9 am-8 pm  Wed: 9 am-8 pm  Thu: 9 am-8 pm  Fri: 9 am-5:30 pm  Sat: 9:30 am-3 pm 
Davidson County Public Library System	West Davidson Public Library	Public	246 Tyro School Rd	Lexington	27295	Davidson	https://www.co.davidson.nc.us/274/Library	(336) 853-4800	Ruth Ann Copley	Sierra Everhart	"7,892"	6.13	Mon: 9 am-8 pm  Tue: 9 am-6 pm  Wed: 9 am-6 pm  Thu: 9 am-8 pm  Fri: 9 am-5:30 pm  Sat: 10 am-2 pm 
Davie County Public Library	Cooleemee Branch Library	Public	7796 Hwy 801 S	Cooleemee	27014	Davie	https://www.daviecountync.gov/400/Public-Library	(336) 284-2805	Jane Blue	Jane Blue	"2,520"	0.75	Mon: 10 am-5 pm  Tue: 10 am-5 pm  Wed: 10 am-5 pm  Thu: 10 am-5 pm  Fri: 10 am-5 pm
Davie County Public Library	Davie County Public Library (Main)	Public	371 N Main St	Mocksville	27028	Davie	https://www.daviecountync.gov/400/Public-Library	(336) 753-6030	Jane Blue	Jane Blue	"15,600"	9.26	Mon: 9 am-8:30 pm  Tue: 9 am-8:30 pm  Wed: 9 am-8:30 pm  Thu: 9 am-8:30 pm  Fri: 9 am-5:30 pm  Sat: 9 am-3 pm  Sun: 2 pm-5 pm
Duplin County Library	Florence Gallier Library	Public	104 W Main St	Magnolia	28453	Duplin	http://www.youseemore.com/duplin/default.asp	(910) 289-7056	Laura Caudill Jones	Laura Caudill Jones	"1,056"	0.33	Mon: 2 pm-5:45 pm  Thu: 2 pm-5:45 pm  Fri: 2 pm-5:45 pm
Duplin County Library	Dorothy Wightman Library (Main)	Public	107 Bowden Dr	Kenansville	28349	Duplin	http://www.youseemore.com/duplin/default.asp	(910) 296-2117	Laura Caudill Jones	Laura Caudill Jones	"5,616"	7.60	Mon: 9 am-6 pm  Tue: 9 am-6 pm  Wed: 9 am-6 pm  Thu: 9 am-6 pm  Fri: 9 am-6 pm  Sat: 10 am-2 pm
Duplin County Library	Emily Hill Library	Public	106 Park Cir	Faison	28341	Duplin	http://www.youseemore.com/duplin/default.asp	(910) 267-0601	Laura Caudill Jones	Laura Caudill Jones	340	0.42	Mon: 2 pm-5:45 pm  Wed: 2 pm-5:45 pm  Thu: 2 pm-5:45 pm  Fri: 2 pm-5:45 pm
Duplin County Library	Phillip Leff Memorial Library	Public	807 E Broad St	Beulaville	28518	Duplin	http://www.youseemore.com/duplin/default.asp	(910) 298-4677	Laura Caudill Jones	Laura Caudill Jones	"2,929"	0.80	Mon: 10 am-12:30 pm; 2 pm-5:45 pm  Tue: 10 am-12:30 pm; 2 pm-5:45 pm  Thu: 10 am-12:30 pm; 2 pm-5:45 pm  Fri: 10 am-12:30 pm; 2 pm-5:45 pm 
Duplin County Library	Rose Hill Library	Public	113 S Walnut St	Rose Hill	28458	Duplin	http://www.youseemore.com/duplin/default.asp	(910) 289-2490	Laura Caudill Jones	Laura Caudill Jones	"3,493"	0.60	Tue: 9 am-1 pm; 2 pm-5:45 pm  Wed: 2 pm-5:45 pm  Thu: 2 pm-5:45 pm  Fri: 10 am-12:30; 2 pm-5:45 pm
Duplin County Library	Warsaw-Kornegay Public Library	Public	117 E College St	Warsaw	28398	Duplin	http://www.youseemore.com/duplin/default.asp	(910) 293-4664	Laura Caudill Jones	Laura Caudill Jones	"1,200"	0.60	Mon: 9 am-12:45 pm; 2 pm-5:45 pm  Tue: 2 pm-5:45 pm  Thu: 2 pm-5:45 pm  Fri: 9 am-12:45 pm; 2 pm-5:45 pm
Durham County Library	East Regional Branch Library	Public	211 Lick Creek Ln	Durham	27703	Durham	https://durhamcountylibrary.org/	(919) 560-0203	Tammy Baggett	Lauren Doll	"25,000"	12.48	Mon: 9 am-9 pm  Tue: 9 am-9 pm  Wed: 9 am-6 pm  Thu: 9 am-9 pm  Fri: 9:30 am-6 pm  Sat: 9:30 am-6 pm  Sun: 2 pm-6 pm
Durham County Library	South Regional Library	Public	4505 S Alston Ave	Durham	27713	Durham	https://durhamcountylibrary.org/	(919) 560-7409	Tammy Baggett	Che Anderson	"27,300"	15.97	Mon: 9 am-9 pm  Tue: 9 am-9 pm  Wed: 9 am-6 pm  Thu: 9 am-9 pm  Fri: 9:30 am-6 pm  Sat: 9:30 am-6 pm  Sun: 2 pm-6 pm
Durham County Library	Bragtown Branch Library	Public	3200 Dearborn Dr	Durham	27704	Durham	https://durhamcountylibrary.org/	(919) 560-0210	Tammy Baggett	DeLois Cue	"1,000"	2.03	Mon: 1 pm-5 pm  Tue: 1 pm-5 pm  Wed: 1 pm-5 pm  Thu: 1 pm-5 pm  Fri: 1 pm-5 pm 
Durham County Library	Durham County Library (Main)	Public	300 N Roxboro St	Durham	27701	Durham	https://durhamcountylibrary.org/	(919) 560-0100	Tammy Baggett	Faith Burns	"66,408"	52.12	Mon: 9 am-9 pm  Tue: 9 am-9 pm  Wed: 9 am-6 pm  Thu: 9 am-9 pm  Fri: 2 pm-6 pm  Sat: 9:30 am-6 pm  Sun: 2 pm-6 pm
Durham County Library	North Regional Library	Public	221 Milton Rd	Durham	27712	Durham	https://durhamcountylibrary.org/	(919) 560-0231	Tammy Baggett	Stephanie Fennell	"25,000"	14.04	Mon: 9 am-9 pm  Tue: 9 am-9 pm  Wed: 9 am-6 pm  Thu: 9 am-9 pm  Fri: 9:30 am-6 pm  Sat: 9:30 am-6 pm  Sun: 2 pm-6 pm
Durham County Library	Southwest Regional Library	Public	3605 Shannon Rd	Durham	27707	Durham	https://durhamcountylibrary.org/	(919) 560-8590	Tammy Baggett	Ruth Link	"25,000"	17.11	Mon: 9 am-9 pm  Tue: 9 am-9 pm  Wed: 9 am-6 pm  Thu: 9 am-9 pm  Fri: 9:30 am-6 pm  Sat: 9:30 am-6 pm  Sun: 2 pm-6 pm
Durham County Library	Stanford L Warren Branch Library	Public	1201 Fayetteville St	Durham	27707	Durham	https://durhamcountylibrary.org/	(919) 560-0270	Tammy Baggett	Myrtle Darden	"10,244"	7.17	Mon: 9 am-9 pm  Tue: 9 am-9 pm  Wed: 9 am-6 pm  Thu: 9 am-9 pm  Fri: 9:30 am-6 pm  Sat: 9:30 am-6 pm  Sun: 2 pm-6 pm
East Albemarle Regional Library	Camden County Public Library	Public	104 Investor's Way Unit C-F	Camden	27921	Camden	http://www.youseemore.com/EARL/default.asp	(252) 331-2543	Jonathan Wark	Kim Perry	"6,800"	4.25	Mon: 9 am-7 pm  Tue: 9 am-7 pm  Wed: 9 am-6 pm  Thu: 9 am-6 pm  Fri: 9 am-6 pm  Sat: 10 am-4 pm
East Albemarle Regional Library	Corolla Branch Library	Public	1123 Ocean Trail	Corolla	27927	Currituck	http://www.youseemore.com/EARL/default.asp	(252) 453-0496	Jonathan Wark	Teresa Westerman	"2,609"	2.00	Mon: 9 am-5 pm  Tue: 9 am-5 pm  Wed: 9 am-5 pm  Thu: 10 am-6 pm  Fri: 9 am-5 pm
East Albemarle Regional Library	Currituck County Library	Public	4261 Caratoke Hwy	Barco	27917	Currituck	http://www.youseemore.com/EARL/default.asp	(252) 453-8345	Jonathan Wark	Dorothy Hocutt	"9,965"	5.25	Mon: 9 am-6 pm  Tue: 9 am-6 pm  Wed: 9 am-6 pm  Thu: 9 am-6 pm  Fri: 9 am-6 pm  Sat: 8:30 am-5 pm
East Albemarle Regional Library	Dare County Library	Public	700 N Highway 64/264	Manteo	27954	Dare	http://www.youseemore.com/EARL/default.asp	(252) 473-2372	Jonathan Wark	Veronica Brickhouse	"8,449"	6.23	Mon: 10 am-7 pm  Tue: 10 am-5:30 pm  Wed: 10 am-5:30 pm  Thu: 10 am-7 pm  Fri: 10 am-5:30 pm  Sat: 10 am-4 pm
East Albemarle Regional Library	Hatteras Branch Library	Public	57709 Highway 12	Hatteras	27943	Dare	http://www.youseemore.com/EARL/default.asp	(252) 986-2385	Jonathan Wark	Michelle Lord	"3,600"	1.89	Tue: 10 am-5:30 pm  Wed: 1 pm-7 pm  Thu: 10 am-5:30 pm  Fri: 10 am-5:30 pm  Sat: 10 am-12:30 pm
East Albemarle Regional Library	Kill Devil Hills Branch Library	Public	400 Mustian St	Kill Devil Hills	27948	Dare	http://www.youseemore.com/EARL/default.asp	(252) 441-4331	Jonathan Wark	Kim Kubisiak	"8,121"	6.75	Mon: 10 am-5:30 pm  Tue: 10 am-7 pm  Wed: 10 am-7 pm  Thu: 10 am-5:30 pm  Fri: 10 am-5:30 pm  Sat: 10 am-4 pm
East Albemarle Regional Library	Moyock Public Library	Public	126 Campus Dr	Moyock	27958	Currituck	http://www.youseemore.com/EARL/default.asp	(252) 435-6419	Jonathan Wark	Ashley Trotter	"7,800"	4.00	Mon: 9 am-6 pm  Tue: 9 am-6 pm  Wed: 9 am-6 pm  Thu: 9 am-6 pm  Fri: 9 am-6 pm  Sat: 8:30 am-5 pm
East Albemarle Regional Library	Pasquotank Library Bookmobile	Public	100 E Colonial Ave	Elizabeth City	27909	Pasquotank	http://www.youseemore.com/EARL/default.asp	(252) 335-2473	Jonathan Wark	Monek Adams	N/A	1.00	Varies
East Albemarle Regional Library	Pasquotank County Library	Public	100 E Colonial Ave	Elizabeth City	27909	Pasquotank	http://www.youseemore.com/EARL/default.asp	(252) 335-2473	Jonathan Wark	Jackie King	"22,544"	12.00	Mon: 8:30 am-6:30 pm  Tue: 8:30 am-7 pm  Wed: 8:30 am-6:30 pm  Thu: 8:30 am-7 pm  Fri: 8:30 am-6:30 pm  Sat: 10 am-2 pm
Edgecombe County Memorial Library	Edgecombe County Memorial Library (Main)	Public	909 Main St	Tarboro	27886	Edgecombe	http://edgecombelibrary.libguides.com/homepage	(252) 823-1141	Roman Leary	Roman Leary	"17,450"	13.50	Mon: 9 am-9 pm  Tue: 9 am-9 pm  Wed: 9 am-9 pm  Thu: 9 am-9 pm  Fri: 9 am-6 pm  Sat: 9 am-5 pm
Edgecombe County Memorial Library	Pinetops Branch Library	Public	201 S 1st St	Pinetops	27864	Edgecombe	http://edgecombelibrary.libguides.com/homepage	(252) 827-4621	Roman Leary	Kathy Causway	"6,000"	1.40	Mon: 9 am-6 pm  Tue: 9 am-8 pm  Wed: 9 am-6 pm  Thu: 9 am-8 pm  Fri: 9 am-6 pm
Farmville Public Library	Farmville Public Library	Public	4276 W Church St	Farmville	27828	Pitt	https://www.farmvillelibrary.org/	(252) 753-3355	David Miller	David Miller	"9,366"	4.00	Mon: 9 am-8 pm  Tue: 9 am-8 pm  Wed: 9 am-8 pm  Thu: 9 am-8 pm  Fri: 9 am-6 pm  Sat: 9 am-3 pm
Fontana Regional Library	Albert Carlton-Cashiers Community Library	Public	249 Frank Allen Rd	Cashiers	28717	Jackson	http://fontanalib.org/	(828) 743-0215	Karen Wallace	Serenity Richards	"11,366"	6.45	Tue: 10 am-5:30 pm  Wed: 10 am-5:30 pm  Thu: 10 am-7 pm  Fri: 10 am-5:30 pm  Sat: 10 am-4 pm
Fontana Regional Library	Hudson Library	Public	554 Main St	Highlands	28741	Macon	http://fontanalib.org/	(828) 526-3031	Karen Wallace	Carlyn Morenus	"8,400"	4.75	Tue: 10 am-5:30 pm  Wed: 10 am-5:30 pm  Thu: 10 am-5:30 pm  Fri: 10 am-5:30 pm  Sat: 10 am-4 pm
Fontana Regional Library	Jackson County Public Library	Public	310 Keener St	Sylva	28779	Jackson	http://fontanalib.org/	(828) 586-2016	Karen Wallace	Tracy Fitmaurice	"26,000"	17.88	Mon: 10 am-6 pm  Tue: 10 am-8 pm  Wed: 10 am-6 pm  Thu: 10 am-8 pm  Fri: 10 am-5 pm  Sat: 10 am-5 pm
Fontana Regional Library	Macon County Public Library	Public	149 Siler Farm Rd	Franklin	28734	Macon	http://fontanalib.org/	(828) 524-3600	Karen Wallace	Karen Wallace	"29,450"	18.58	Mon: 10 am-7 pm  Tue: 10 am-7 pm  Wed: 10 am-7 pm  Thu: 10 am-7 pm  Fri: 10 am-5 pm  Sat: 10 am-5 pm
Fontana Regional Library	Marianna Black Library	Public	33 Fryemont Rd	Bryson City	28713	Swain	http://fontanalib.org/	(828) 488-3030	Karen Wallace	Jeff Delfield	"8,790"	5.75	Mon: 10 am-5:30 pm  Tue: 10 am-7 pm  Wed: 10 am-5:30 pm  Thu: 10 am-7 pm  Fri: 10 am-4 pm  Sat: 10 am-4 pm
Fontana Regional Library	Nantahala Community Library	Public	128 Nantahala School Rd	Topton	28781	Macon	http://fontanalib.org/	(828) 321-3020	Karen Wallace	Sharon Crosby	450	1.12	Tue: 10 am-5 pm  Wed: 10 am-5 pm  Thu: 10 am-5 pm  Fri: 10 am-5 pm  Sat: 10 am-5 pm
Forsyth County Public Library	Carver School Road Branch Library	Public	4915 Lansing Dr	Winston-Salem	27105	Forsyth	http://www.forsyth.cc/library/	(336) 703-2910	Sylvia Sprinkle-Hamlin	Melisa Williams	"10,000"	4.90	Mon: 9 am-8 pm  Tue: 9 am-8 pm  Wed: 9 am-8 pm  Thu: 9 am-6 pm  Fri: 9 am-6 pm  Sat: 10 am-5 pm
Forsyth County Public Library	Clemmons Branch Library	Public	3554 Clemmons Rd	Clemmons	27012	Forsyth	http://www.forsyth.cc/library/	(336) 703-2920	Sylvia Sprinkle-Hamlin	Carolyn Price	"8,900"	6.35	Mon: 9 am-8 pm  Tue: 9 am-8 pm  Wed: 9 am-8 pm  Thu: 9 am-6 pm  Fri: 9 am-6 pm  Sat: 10 am-5 pm
Forsyth County Public Library	Malloy/Jordan East Winston Heritage Center	Public	1110 E 7th St	Winston-Salem	27101	Forsyth	http://www.forsyth.cc/library/	(336) 703-2950	Sylvia Sprinkle-Hamlin	Wright Adams	"5,800"	5.00	Mon: 11 am-8 pm  Tue: 11 am-8 pm  Wed: 11 am-8 pm  Thu: 9 am-6 pm  Fri: 9 am-6 pm  Sat: 10 am-2 pm
Forsyth County Public Library	Forsyth County Public Library Bookmobile	Public	1110 E 7th St	Winston-Salem	27101	Forsyth	http://www.forsyth.cc/library/	(336) 703-2900	Sylvia Sprinkle-Hamlin	Wright Adams	N/A	2.00	Varies
Forsyth County Public Library	Forsyth County Public Library (Main)	Public	660 W Fifth Street	Winston-Salem	27101	Forsyth	http://www.forsyth.cc/library/	(336) 703-3011	Sylvia Sprinkle-Hamlin	Elizabeth Skinner	"103,000"	53.15	Mon: 9 am-8 pm  Tue: 9 am-8 pm  Wed: 9 am-8 pm  Thu: 9 am-6 pm  Fri: 9 am-6 pm  Sat: 10 am-5 pm Sun: (Sep-May) 1 pm-5 pm
Forsyth County Public Library	Paddison Memorial Branch Library	Public	248 Harmon Ln	Kernersville	27284	Forsyth	http://www.forsyth.cc/library/	(336) 703-2930	Sylvia Sprinkle-Hamlin	Crystal Holland	"20,000"	6.35	Mon: 9 am-8 pm  Tue: 9 am-8 pm  Wed: 9 am-8 pm  Thu: 9 am-6 pm  Fri: 9 am-6 pm  Sat: 10 am-5 pm  Sun: 1 pm-5 pm
Forsyth County Public Library	Lewisville Branch Library	Public	6490 Shallowford Rd	Lewisville	27023	Forsyth	http://www.forsyth.cc/library/	(336) 703-2940	Sylvia Sprinkle-Hamlin	Raegen Luntz	"15,000"	5.90	Mon: 9 am-8 pm  Tue: 9 am-8 pm  Wed: 9 am-8 pm  Thu: 9 am-6 pm  Fri: 9 am-6 pm  Sat: 10 am-5 pm
Forsyth County Public Library	Rural Hall Branch Library	Public	7125 Broad St	Rural Hall	27045	Forsyth	http://www.forsyth.cc/library/	(336) 703-2970	Sylvia Sprinkle-Hamlin	Vacant	"8,900"	3.45	Mon: 9 am-8 pm  Tue: 9 am-8 pm  Wed: 9 am-8 pm  Thu: 9 am-6 pm  Fri: 9 am-6 pm  Sat: 10 am-2 pm
Forsyth County Public Library	Southside Branch Library	Public	3185 Buchanan St	Winston-Salem	27127	Forsyth	http://www.forsyth.cc/library/	(336) 703-2980	Sylvia Sprinkle-Hamlin	Decca Slaughter	"9,800"	5.90	Mon: 9 am-8 pm  Tue: 9 am-8 pm  Wed: 9 am-8 pm  Thu: 9 am-6 pm  Fri: 9 am-6 pm  Sat: 10 am-5 pm
Forsyth County Public Library	Walkertown Branch Library	Public	2969 Main St	Walkertown	27051	Forsyth	http://www.forsyth.cc/library/	(336) 703-2990	Sylvia Sprinkle-Hamlin	Natalia Tuchinia	"10,800"	3.45	Mon: 9 am-8 pm  Tue: 9 am-8 pm  Wed: 9 am-8 pm  Thu: 9 am-6 pm  Fri: 9 am-6 pm  Sat: 10 am-2 pm
Forsyth County Public Library	Reynolda Manor Branch Library	Public	2839 Fairlawn Dr	Winston-Salem	27106	Forsyth	http://www.forsyth.cc/library/	(336) 703-2960	Sylvia Sprinkle-Hamlin	Jennifer Boneno	"17,000"	6.35	Mon: 9 am-8 pm  Tue: 9 am-8 pm  Wed: 9 am-8 pm  Thu: 9 am-6 pm  Fri: 9 am-6 pm  Sat: 10 am-5 pm
Franklin County Library	Bunn Branch Library	Public	610 Main St	Bunn	27508	Franklin	https://www.franklincountync.us/services/library	(919) 496-6764	Holt Kornegay	Debra Pittman	"2,400"	1.00	Mon: 12 pm-7 pm  Tue: 12 pm-7 pm  Wed: 12 pm-7 pm  Thu: 12 pm-7 pm  Fri: 12 pm-7 pm
Franklin County Library	Franklin County Library (Main)	Public	906 N Main St	Louisburg	27549	Franklin	https://www.franklincountync.us/services/library	(919) 496-2111	Holt Kornegay	Holt Kornegay	"6,000"	8.00	Mon: 10 am-7 pm  Tue: 10 am-7 pm  Wed: 10 am-7 pm  Thu: 10 am-7 pm  Fri: 10 am-7 pm  Sat: 10 am-5 pm
Franklin County Library	Franklinton Public Library	Public	9 W Mason St	Franklinton	27525	Franklin	https://www.franklincountync.us/services/library	(919) 494-2736	Holt Kornegay	Alyce Kidd	"4,000"	1.50	Mon: 12 pm-7 pm  Tue: 12 pm-7 pm  Wed: 12 pm-7 pm  Thu: 12 pm-7 pm  Fri: 12 pm-7 pm
Franklin County Library	Franklin County Bookmobile	Public	906 N Main St	Louisburg	27549	Franklin	https://www.franklincountync.us/services/library	(919) 496-2111	Holt Kornegay	Vickie Williams	24	0.07	Varies
Franklin County Library	Youngsville Branch Library	Public	218 US 1A Hwy S	Youngsville	27596	Franklin	https://www.franklincountync.us/services/library	(919) 556-1612	Holt Kornegay	Jimmie Williams	"4,096"	2.00	Mon: 10 am-7 pm  Tue: 10 am-7 pm  Wed: 10 am-7 pm  Thu: 10 am-7 pm  Fri: 10 am-7 pm  Sat: 1 pm-5 pm
Gaston County Public Library	Belmont Branch Library	Public	125 N Central Ave	Belmont	28012	Gaston	http://gastonlibrary.org/	(704) 285-5426	Laurel Morris	Katie Cox	"4,953"	3.00	Mon: 10 am-6 pm  Tue: 10 am-6 pm  Wed: 10 am-2 pm  Thu: 12 pm-8 pm  Fri: 10 am-6 pm  Sat: 10 am-2 pm
Gaston County Public Library	Bessemer City Branch Library	Public	207 N 12th St	Bessemer City	28016	Gaston	http://gastonlibrary.org/	(704) 629-3321	Laurel Morris	Sandra Love Corum	"3,034"	2.50	Mon: 12 pm-8 pm  Tue: 10 am-6 pm  Wed: 10 am-2 pm  Thu: 10 am-6 pm  Fri: 10 am-6 pm  Sat: 10 am-2 pm
Gaston County Public Library	Cherryville Branch Library	Public	605 E Main St	Cherryville	28021	Gaston	http://gastonlibrary.org/	(704) 435-6767	Laurel Morris	Traci Pollitt	"4,534"	3.00	Mon: 10 am-6 pm  Tue: 12 pm-8 pm  Wed: 10 am-2 pm  Thu: 10 am-6 pm  Fri: 10 am-6 pm  Sat: 10 am-2 pm
Gaston County Public Library	Dallas Branch Library	Public	105 S Holland St	Dallas	28034	Gaston	http://gastonlibrary.org/	(704) 922-3621	Laurel Morris	Christine McGovern	"2,970"	2.00	Mon: 10 am-6 pm  Tue: 10 am-6 pm  Wed: 10 am-2 pm  Thu: 12 pm-8 pm  Fri: 10 am-6 pm  Sat: 10 am-2 pm
Gaston County Public Library	Ferguson Branch Library	Public	913 N Pryor St	Gastonia	28052	Gaston	http://gastonlibrary.org/	(704) 868-8046	Laurel Morris	Daniel Tapia	"1,000"	1.00	Mon: 3 pm-8 pm  Tue: 3 pm-8 pm  Wed: 3 pm-8 pm  Thu: 3 pm-8 pm  Fri: 1 pm-5 pm  Sat: 10 am-2 pm
Gaston County Public Library	Gaston County Public Library (Main)	Public	1555 E Garrison Blvd	Gastonia	28054	Gaston	http://gastonlibrary.org/	(704) 868-2164	Laurel Morris	Laurel Morris	"60,000"	33.50	Mon: 10 am-9 pm  Tue: 10 am-9 pm  Wed: 10 am-6 pm  Thu: 10 am-9 pm  Fri: 10 am-2 pm  Sat: 10 am-6 pm
Gaston County Public Library	Lowell Branch Library	Public	203 McAdenville Rd	Lowell	28098	Gaston	http://gastonlibrary.org/	(704) 824-1266	Laurel Morris	Kendall Ramsey	"3,604"	2.00	Mon: 10 am-6 pm  Tue: 12 pm-8 pm  Wed: 10 am-6 pm  Thu: 10 am-6 pm  Fri: 10 am-6 pm
Gaston County Public Library	Mt. Holly Branch Library	Public	245 W Catawba Ave	Mount Holly	28120	Gaston	http://gastonlibrary.org/	(704) 827-3581	Laurel Morris	Debra Trogdon-Livingston	"4,054"	3.00	Mon: 12 pm-8 pm  Tue: 10 am-6 pm  Wed: 10 am-2 pm  Thu: 10 am-6 pm  Fri: 10 am-6 pm  Sat: 10 am-2 pm
Gaston County Public Library	Stanley Branch Library	Public	205 Peterson St	Stanley	28164	Gaston	http://gastonlibrary.org/	(704) 263-4166	Laurel Morris	Michelle Osborne	"3,084"	3.00	Mon: 10 am-6 pm  Tue: 12 pm-8 pm  Wed: 10 am-2 pm  Thu: 10 am-6 pm  Fri: 10 am-6 pm  Sat: 10 am-2 pm
Gaston County Public Library	Union Road Branch Library	Public	5800 Union Rd	Gastonia	28056	Gaston	http://gastonlibrary.org/	(704) 852-4073	Laurel Morris	Rene Crump	"5,000"	3.00	Mon: 12 pm-8 pm  Tue: 10 am-6 pm  Wed: 10 am-2 pm  Thu: 10 am-6 pm  Fri: 10 am-6 pm  Sat: 10 am-2 pm
George H. & Laura E. Brown Public Library	George H. & Laura E. Brown Public Library	Public	122 Van Norden St	Washington	27889	Beaufort	https://washington-nc.libguides.com/home	(252) 946-4300	Sandra Silvey	Sandra A. Silvey	"12,000"	7.00	Mon: 9 am-6 pm  Tue: 9 am-6 pm  Wed: 9 am-6 pm  Thu: 9 am-6 pm  Fri: 9 am-6 pm  Sat: 9 am-6 pm
Granville County Library System	Berea Branch Library	Public	1211 Hwy 158	Oxford	27565	Granville	https://granville.lib.nc.us/	(919) 693-1231	Will Robinson 	Abbe Few	"1,128"	0.50	Tue: 10 am-3 pm  Thu: 2 pm-7 pm  Sat: 10 am-3 pm
Granville County Library System	Richard H. Thornton Library (Main)	Public	210 Main St	Oxford	27565	Granville	https://granville.lib.nc.us/	(919) 693-1121	Will Robinson 	Will Robinson 	"12,125"	12.00	Mon: 10 am-8 pm  Tue: 10 am-8 pm  Wed: 10 am-8 pm  Thu: 10 am-8 pm  Fri: 10 am-5 pm  Sat: 10 am-5 pm  Sun: (Sep-May) 1 pm-5 pm
Granville County Library System	South Branch Library	Public	1550 S Campus Dr	Creedmoor	27522	Granville	https://granville.lib.nc.us/	(919) 528-1752	Will Robinson 	Zina Hardee	"14,200"	4.50	Mon: 10 am-8 pm  Tue: 10 am-8 pm  Wed: 10 am-8 pm  Thu: 10 am-8 pm  Fri: 10 am-5 pm  Sat: 12 pm-5 pm
Granville County Library System	Stovall Branch Library	Public	300 Main St	Stovall	27582	Granville	https://granville.lib.nc.us/	(919) 693-5722	Will Robinson 	Deborah Bullock	"4,200"	1.00	Mon: 10 am-5 pm  Tue: 12 pm-7 pm  Wed: 10 am-5 pm  Thu: 12 pm-7 pm  Sat: 10 am-5 pm  Sun: (Sep-May) 2 pm-5 pm
Greensboro Public Library	Blanche Benjamin Branch Library	Public	1530 Benjamin Pkwy	Greensboro	27408	Guilford	https://library.greensboro-nc.gov/home	(336) 373-7540	Brigitte Blanton	Katherine Fanstill	"8,400"	5.63	Mon: 9 am-9 pm  Tue: 9 am-9 pm  Wed: 9 am-9 pm  Thu: 9 am-9 pm  Fri: 9 am-6 pm  Sat: 9 am-6 pm  Sun: 2 pm-6 pm
Greensboro Public Library	Glenwood Branch Library	Public	1901 W Florida St	Greensboro	27403	Guilford	https://library.greensboro-nc.gov/home	(336) 297-5000	Brigitte Blanton	Amy Matthews	"10,000"	5.75	Mon: 9 am-9 pm  Tue: 9 am-9 pm  Wed: 9 am-9 pm  Thu: 9 am-9 pm  Fri: 9 am-6 pm  Sat: 9 am-6 pm  Sun: 2 pm-6 pm
Greensboro Public Library	Glenn McNairy Branch Library	Public	4860 Lake Jeanette Rd	Greensboro	27455	Guilford	https://library.greensboro-nc.gov/home	(336) 373-2015	Brigitte Blanton	Wanda Phifer	"15,000"	7.00	Mon: 9 am-9 pm  Tue: 9 am-9 pm  Wed: 9 am-9 pm  Thu: 9 am-9 pm  Fri: 9 am-6 pm  Sat: 9 am-6 pm  Sun: 2 pm-6 pm
Greensboro Public Library	Greensboro Public Library (Main)	Public	219 N Church St	Greensboro	27401	Guilford	https://library.greensboro-nc.gov/home	(336) 373-2474	Brigitte Blanton	Brian Hart	"98,500"	48.50	Mon: 9 am-9 pm  Tue: 9 am-9 pm  Wed: 9 am-9 pm  Thu: 9 am-9 pm  Fri: 9 am-9 pm  Sat: 9 am-6 pm  Sun: 2 pm-6 pm
Greensboro Public Library	Kathleen Clay Edwards Family Branch	Public	1420 Price Park Rd	Greensboro	27410	Guilford	https://library.greensboro-nc.gov/home	(336) 373-2923	Brigitte Blanton	Jane Hutson	"15,000"	9.63	Mon: 9 am-9 pm  Tue: 9 am-9 pm  Wed: 9 am-9 pm  Thu: 9 am-9 pm  Fri: 9 am-6 pm  Sat: 9 am-6 pm  Sun: 2 pm-6 pm
Greensboro Public Library	McGirt-Horton Branch Library	Public	2501 Phillips Ave	Greensboro	27405	Guilford	https://library.greensboro-nc.gov/home	(336) 373-5810	Brigitte Blanton	Katie Fanstill	"10,000"	6.00	Mon: 9 am-9 pm  Tue: 9 am-9 pm  Wed: 9 am-9 pm  Thu: 9 am-9 pm  Fri: 9 am-6 pm  Sat: 9 am-6 pm  Sun: 2 pm-6 pm
Greensboro Public Library	Hemphill Branch Library	Public	2301 W Vandalia Rd	Greensboro	27407	Guilford	https://library.greensboro-nc.gov/home	(336) 373-2925	Brigitte Blanton	Brian Johnson	"15,000"	6.00	Mon: 9 am-9 pm  Tue: 9 am-9 pm  Wed: 9 am-9 pm  Thu: 9 am-9 pm  Fri: 9 am-6 pm  Sat: 9 am-6 pm  Sun: 2 pm-6 pm
Greensboro Public Library	Vance H. Chavis Lifelong Learning Branch Library	Public	900 S Benbow Rd	Greensboro	27406	Guilford	https://library.greensboro-nc.gov/home	(336) 373-5838	Brigitte Blanton	Amy Matthews	"6,088"	6.50	Mon: 9 am-9 pm  Tue: 9 am-9 pm  Wed: 9 am-9 pm  Thu: 9 am-9 pm  Fri: 9 am-6 pm  Sat: 9 am-6 pm  Sun: 2 pm-6 pm
Halifax County Library System	Enfield Library	Public	103 S Railroad St	Enfield	27823	Halifax	http://www.halifaxnc.libguides.com/hcl	(252) 445-5203	Virginia Orvedahl	Cheryl Dickens	"1,800"	2.00	Mon: 8:30 am-5 pm  Tue: 8:30 am-5 pm  Wed: 8:30 am-5 pm  Thu: 8:30 am-5 pm  Fri: 8:30 am-5 pm  Sat: 9 am-12 pm 
Halifax County Library System	Halifax County Library (Main)	Public	33 Granville St	Halifax	27839	Halifax	http://www.halifaxnc.libguides.com/hcl	(252) 583-3631	Virginia Orvedahl	Barbara Valdes	"11,589"	2.00	Mon: 8:30 am-6 pm  Tue: 8:30 am-5 pm  Wed: 8:30 am-6 pm  Thu: 8:30 am-5 pm  Fri: 8:30 am-5 pm  Sat: 9 am-12:30 pm 
Halifax County Library System	Littleton Public Library	Public	114 E South Main St	Littleton	27850	Halifax	http://www.halifaxnc.libguides.com/hcl	(252) 586-3608	Virginia Orvedahl	Kim Gray	"4,000"	2.00	Mon: 8:30 am-5 pm  Tue: 8:30 am-5 pm  Wed: 8:30 am-5 pm  Thu: 8:30 am-7 pm  Fri: 8:30 am-5 pm  Sat: 9 am-12:30 pm 
Halifax County Library System	Scotland Neck Memorial Library	Public	1600 Main St	Scotland Neck	27874	Halifax	http://www.halifaxnc.libguides.com/hcl	(252) 826-5578	Virginia Orvedahl	Brenda Mills	"7,200"	2.00	Mon: 8:30 am-5 pm  Tue: 8:30 am-7 pm  Wed: 8:30 am-5 pm  Thu: 8:30 am-7 pm  Fri: 8:30 am-5 pm  Sat: 9 am-12 pm 
Halifax County Library System	Weldon Memorial Library	Public	6 W 1st St	Weldon	27890	Halifax	http://www.halifaxnc.libguides.com/hcl	(252) 536-3837	Virginia Orvedahl	LaTarsha Debro	"3,520"	2.00	Mon: 8:30 am-5 pm  Tue: 8:30 am-7 pm  Wed: 8:30 am-5 pm  Thu: 8:30 am-5 pm  Fri: 8:30 am-5 pm  Sat: 9 am-12:30 pm 
Harnett County Public Library	Angier Public Library	Public	28 N Raleigh St	Angier	27546	Harnett	https://harnett.libguides.com/hcpl	(919) 639-4413	Angela McCauley	Amanda B Davis	"3,000"	3.20	Mon: 9 am-5 pm  Tue: 9 am-6:30 pm  Wed: 9 am-5 pm  Thu: 9 am-6:30 pm  Fri: 9 am-5 pm
Harnett County Public Library	Coats Public Library	Public	29 E Main St	Coats	27521	Harnett	https://harnett.libguides.com/hcpl	(910) 230-1944	Angela McCauley	Teresa Brown	"1,800"	0.90	Mon: 11 am-6 pm  Tue: 11 am-6 pm  Wed: 11 am-6 pm  Thu: 11 am-6 pm  Fri: 10 am-3 pm
Harnett County Public Library	Dunn Public Library	Public	110 E Divine St	Dunn	28334	Harnett	https://harnett.libguides.com/hcpl	(910) 892-2899	Angela McCauley	Michael Williams	"4,000"	4.00	Mon: 9 am-6 pm  Tue: 9 am-6 pm  Wed: 9 am-6 pm  Thu: 11 am-6 pm  Fri: 9 am-5 pm  Sat: 9 am-1 pm 
Harnett County Public Library	Erwin Public Library	Public	110 W F St	Erwin	28339	Harnett	https://harnett.libguides.com/hcpl	(910) 897-5780	Angela McCauley	Jeanne Serrette	"1,800"	1.40	Mon: 9 am-5 pm  Tue: 9 am-5 pm  Wed: 9 am-5 pm  Thu: 9 am-5 pm  Fri: 9 am-5 pm
Harnett County Public Library	Harnett County Public Library (Main)	Public	601 S Main St	Lillington	27546	Harnett	https://harnett.libguides.com/hcpl	(910) 893-3446	Angela McCauley	Angela McCauley	"14,395"	14.50	Mon: 9 am-8 pm  Tue: 9 am-8 pm  Wed: 9 am-8 pm  Thu: 9 am-8 pm  Fri: 9 am-5 pm  Sat: 9 am-1 pm
Harnett County Public Library	Anderson Creek Public Library	Public	914 Anderson Creek School Rd	Bunnlevel	28323	Harnett	https://harnett.libguides.com/hcpl	(910) 814-4012	Angela McCauley	Angela McCauley	"3,500"	0.80	Tue: 4 pm-8 pm  Thu: 4 pm-8 pm  Sat: 10 am-2 pm
Harnett County Public Library	Boone Trail Community Center & Library	Public	8500 Old US 421	Lillington	27546	Harnett	https://harnett.libguides.com/hcpl	(910) 984-1094	Angela McCauley	Angela McCauley	"4,250"	2.00	Mon: 2 pm-8 pm  Tue: 2 pm-8 pm  Wed: 2 pm-8 pm  Thu: 2 pm-8 pm  Fri: 2 pm-8 pm  Sat: 9 am-4 pm
Harold D. Cooley Library	Harold D. Cooley Library	Public	114 W Church St	Nashville	27856	Nash	http://www.townofnashville.com/community/town-library	(252) 459-2106	Emily Enderle	Emily Enderle	"6,000"	2.00	Mon: 9 am- 6 pm  Tue: 9 am- 6 pm  Wed: 9 am- 6 pm  Thu: 9 am- 6 pm  Fri: 9 am- 6 pm  Sat: 9 am- 3 pm 
Haywood County Public Library	Fines Creek Branch Library	Public	190 Fines Creek Rd	Clyde	28721	Haywood	http://www.haywoodlibrary.org/	(828) 356-2551	Kathy Vossler	Donna Surles	"1,728"	1.00	Mon: 9 am-5 pm  Wed: 9 am-5 pm
Haywood County Public Library	Canton Branch Library	Public	11 Pennsylvania Ave	Canton	28716	Haywood	http://www.haywoodlibrary.org/	(828) 648-2924	Kathy Vossler	Jennifer Stuart	"10,000"	3.00	Mon: 9 am-6 pm  Tue: 9 am-7 pm  Wed: 9 am-6 pm  Thu: 9 am-7 pm  Fri: 9 am-6 pm  Sun: 1:30 pm-5 pm
Haywood County Public Library	Haywood County Public Library (Main)	Public	678 S Haywood St	Waynesville	28786	Haywood	http://www.haywoodlibrary.org/	(828) 452-5169	Kathy Vossler	Kathy Vossler	"21,000"	13.00	Mon: 9 am-6 pm  Tue: 9 am-7 pm  Wed: 9 am-6 pm  Thu: 9 am-7 pm  Fri: 9 am-6 pm  Sat: 9 am-5 pm 
Haywood County Public Library	Maggie Valley Branch Library	Public	3987 Soco Rd	Maggie Valley	28751	Haywood	http://www.haywoodlibrary.org/	(828) 356-2541	Kathy Vossler	Donna Surles	"1,600"	-1.00	Tue: 9 am-5 pm  Thu: 9 am-5 pm
Henderson County Public Library	Edneyville Branch Library	Public	2 Firehouse Ln	Hendersonville	28792	Henderson	https://www.hendersoncountync.gov/library	(828) 685-0110	Trina Rushing	Cindy Camp-Fisher	"3,000"	1.50	Mon: 9 am- 7 pm  Tue: 9 am- 7 pm  Wed: 9 am- 5 pm  Thu: 9 am- 5 pm  Fri: 10 am- 2 pm  Sat: 10 am- 2 pm
Henderson County Public Library	Etowah Branch Library	Public	101 Brickyard Rd	Etowah	28729	Henderson	https://www.hendersoncountync.gov/library	(828) 891-6577	Trina Rushing	Karen Bryant	"8,100"	2.00	Mon: 9 am- 7 pm  Tue: 9 am- 5 pm  Wed: 9 am- 7 pm  Thu: 9 am- 5 pm  Fri: 10 am- 2 pm  Sat: 10 am- 2 pm
Henderson County Public Library	Fletcher Branch Library	Public	120 Library Rd	Fletcher	28732	Henderson	https://www.hendersoncountync.gov/library	(828) 687-1218	Trina Rushing	Lisa Whitney	"5,300"	2.60	Mon: 10 am- 7 pm  Tue: 10 am- 5 pm  Wed: 10 am- 7 pm  Thu: 10 am- 5 pm  Fri: 10 am- 4 pm  Sat: 10 am- 4 pm
Henderson County Public Library	Green River Branch Library	Public	50 Green River Rd	Zirconia	28790	Henderson	https://www.hendersoncountync.gov/library	(828) 697-4969	Trina Rushing	Ashley Shackley	"1,000"	1.00	Mon: 9 am- 5 pm  Tue: 9 am- 6 pm  Wed: 9 am- 1 pm  Thu: 9 am- 6 pm  Fri: 9 am- 5 pm  Sat: 9 am- 1 pm
Henderson County Public Library	Henderson County Public Library (Main)	Public	301 N Washington St	Hendersonville	28739	Henderson	https://www.hendersoncountync.gov/library	(828) 697-4725	Trina Rushing	Trina Rushing	"42,500"	30.78	Mon: 9 am- 8 pm  Tue: 9 am- 8 pm  Wed: 9 am- 8 pm  Thu: 9 am- 8 pm  Fri: 9 am- 5 pm  Sat: 9 am- 5 pm
Henderson County Public Library	Mills River Branch Library	Public	124 Town Center Dr Ste 1	Mills River	28759	Henderson	https://www.hendersoncountync.gov/library	(828) 890-1850	Trina Rushing	Brittany Wist Smith	"1,890"	1.00	Mon: 9 am- 5 pm  Tue: 9 am- 6 pm  Wed: 9 am- 6 pm  Thu: 9 am- 1 pm  Fri: 9 am- 5 pm  Sat: 9 am- 1 pm
Hickory Public Library	Patrick Beaver Memorial Library (Main)	Public	375 3rd St Ne	Hickory	28601	Catawba	http://www.hickorync.gov/content/library	(828) 304-0500	Sarah Greene	Sarah Greene	"40,800"	21.13	Mon: 9 am- 9 pm  Tue: 9 am- 9 pm  Wed: 9 am- 9 pm  Thu: 9 am- 9 pm  Fri: 9 am- 5 pm  Sat: 9 am- 5 pm
Hickory Public Library	Ridgeview Branch Library	Public	706 1st St Sw	Hickory	28602	Catawba	http://www.hickorync.gov/content/library	(828) 345-6037	Sarah Greene	Sarah Greene	"4,000"	3.81	Mon: 9 am- 9 pm  Tue: 9 am- 9 pm  Wed: 9 am- 9 pm  Thu: 9 am- 9 pm  Fri: 9 am- 5 pm  Sat: 9 am- 5 pm
High Point Public Library	High Point Public Library (Main)	Public	901 N Main St	High Point	27262	Guilford	https://www.highpointnc.gov/749/Library	(336) 883-3631	Mary M. Sizemore	Mary Sizemore	"83,440"	68.25	Mon: 9 am- 8 pm  Tue: 9 am- 8 pm  Wed: 9 am- 8 pm  Thu: 9 am- 8 pm  Fri: 9 am- 6 pm  Sat: 9 am- 6 pm  Sun: 1:30 pm-5:30 pm
High Point Public Library	Books & Beyond Mobile Library	Public	901 N Main St	High Point	27262	Guilford	https://www.highpointnc.gov/749/Library	(336) 883-3631	Mary M. Sizemore	Kim Wilks	N/A	0.75	Varies
Hocutt Ellington Memorial Library	Hocutt-Ellington Memorial Library	Public	100 S Church Street	Clayton	27520	Johnston	http://www.townofclaytonnc.org/Library/	(919) 553-5542	Joy Garretson	Joy Garretson	"8,038"	9.25	Mon: 9 am- 7 pm  Tue: 9 am- 7 pm  Wed: 9 am- 7 pm  Thu: 9 am- 7 pm  Fri: 9 am- 5 pm  Sat: 9 am- 2 pm 
Iredell County Library	Iredell County Library (Main)	Public	201 N Tradd St	Statesville	28687	Iredell	https://www.iredell.lib.nc.us/	(704) 878-3090	Juli Moore	Juli Moore	"54,000"	26.40	Mon: 9 am- 9 pm  Tue: 9 am- 9 pm  Wed: 9 am- 9 pm  Thu: 9 am- 9 pm  Fri: 9 am- 6 pm  Sat: 9 am- 6 pm 
Iredell County Library	Harmony Branch Library	Public	3393 Harmony Hwy	Harmony	28634	Iredell	https://www.iredell.lib.nc.us/	(704) 546-7086	Juli Moore	Melissa Gaither	"3,000"	2.48	Mon: 10 am- 7 pm  Tue: 10 am- 7 pm  Wed: 10 am- 7 pm  Thu: 10 am- 7 pm  Fri: 9 am- 6 pm  Sat: 9 am- 6 pm 
Iredell County Library	J. Hoyt Hayes Memorial Troutman Branch Library	Public	215 W Church St	Troutman	28166	Iredell	https://www.iredell.lib.nc.us/	(704) 528-2682	Juli Moore	Kelli Goodwin	"7,000"	2.48	Mon: 10 am- 7 pm  Tue: 10 am- 7 pm  Wed: 10 am- 7 pm  Thu: 10 am- 7 pm  Fri: 9 am- 6 pm  Sat: 9 am- 6 pm 
Mauney Memorial Library	Mauney Memorial Library	Public	100 S Piedmont Ave	Kings Mountain	28086	Cleveland	http://www.mauneylibrary.org/249/Mauney-Memorial-Library	(704) 739-2371	Vacant		"13,457"	8.50	Mon: 9 am- 8 pm  Tue: 9 am- 8 pm  Wed: 9 am- 6 pm  Thu: 9 am- 6 pm  Fri: 9 am- 5 pm  Sat: 9 am- 1 pm 
Lee County Library	Broadway Branch Library	Public	206 S Main St	Broadway	27505	Lee	http://library.leecountync.gov/home	(919) 258-6513	Beth List	Beth List	"1,423"	0.40	Tue: 1 pm-5 pm  Wed: 10 am-2 pm  Thu: 3 pm-7 pm  Fri: 10 pm-2 pm  Sat: 10 pm-2 pm
Lee County Library	Lee County Library (Main)	Public	107 Hawkins Ave	Sanford	27330	Lee	http://library.leecountync.gov/home	(919) 718-4665	Beth List	Beth List	"18,155"	8.70	Mon: 9 am- 8 pm  Tue: 9 am- 8 pm  Wed: 9 am- 8 pm  Thu: 9 am- 8 pm  Fri: 9 am- 5 pm  Sat: 9 am- 5 pm
Lincoln County Public Library	Charles R. Jonas Library (Main)	Public	306 W Main St	Lincolnton	28092	Lincoln	http://www.lincolncounty.org/index.aspx?NID=986	(704) 735-8044	Jennifer Sackett	Helena Brittain	"16,000"	9.00	Mon: 9 am- 9 pm  Tue: 9 am- 9 pm  Wed: 10 am- 6 pm  Thu: 9 am- 9 pm  Fri: 9 am- 6 pm  Sat: 9 am- 6 pm 
Lincoln County Public Library	Florence S. Shanklin Branch Library	Public	7837 Fairfield Forest Rd	Denver	28037	Lincoln	http://www.lincolncounty.org/index.aspx?NID=987	(704) 483-3589	Jennifer Sackett	Matthew Sheridan	"6,379"	4.00	Mon: 10 am- 8 pm  Tue: 9 am- 6 pm  Wed: 10 am- 6 pm  Thu: 9 am- 6 pm  Fri: 9 am- 6 pm  Sat: 10 am- 2 pm 
Lincoln County Public Library	West Lincoln Branch Library	Public	5545 W NC Hwy 27	Vale	28168	Lincoln	http://www.lincolncounty.org/index.aspx?NID=988	(704) 276-9946	Jennifer Sackett	Angela Miller	"2,500"	2.00	Mon: 10 am- 8 pm  Tue: 10 am- 6 pm  Wed: 10 am- 6 pm  Thu: 10 am- 6 pm  Fri: 10 am- 6 pm  Sat: 10 am- 1 pm 
Madison County Public Library	Hot Springs Branch Library	Public	170 Bridge St	Hot Springs	28743	Madison	http://www.madisoncountylibrary.net/	(828) 622-3584	Peggy Goforth (Interim)	Winnie Broglin	"2,040"	1.14	Mon: 10 am- 6 pm  Tue: 10 am- 6 pm  Wed: 10 am- 6 pm  Thu: 10 am- 6 pm  Fri: 10 am- 6 pm  Sat: 10 am- 2 pm
Madison County Public Library	Madison County Public Library (Main)	Public	1335 N Main St	Marshall	28753	Madison	http://www.madisoncountylibrary.net/	(828) 649-3741	Peggy Goforth (Interim)		"11,636"	7.42	Mon: 9 am- 6 pm  Tue: 9 am- 7 pm  Wed: 9 am- 6 pm  Thu: 9 am- 7 pm  Fri: 9 am- 6 pm  Sat: 9 am- 2 pm
Madison County Public Library	Mars Hill Branch Library	Public	25 Library St	Mars Hill	28754	Madison	http://www.madisoncountylibrary.net/	(828) 689-5183	Peggy Goforth (Interim)	Shawna Bryce	"7,500"	2.33	Mon: 9 am- 6 pm  Tue: 9 am- 7 pm  Wed: 9 am- 6 pm  Thu: 9 am- 7 pm  Fri: 9 am- 6 pm  Sat: 9 am- 2 pm
McDowell County Public Library	McDowell County Public Library (Main)	Public	90 W Court St	Marion	28752	McDowell	https://mcdowellpubliclibrary.org/	(828) 652-3858	Marlan Brinkley	Marlan Brinkley	"18,290"	8.00	Mon: 10 am- 5:30 pm  Tue: 10 am- 7 pm  Wed: 10 am- 5:30 pm  Thu: 10 am- 7 pm  Fri: 10 am- 5:30 pm  Sat: 11 am- 5 pm 
McDowell County Public Library	Old Fort Branch Library	Public	65 E Mitchell St	Old Fort	28762	McDowell	https://mcdowellpubliclibrary.org/	(828) 668-7111	Marlan Brinkley	Carmen Melinn	"4,000"	1.00	Tue: 10 am- 5:30 pm  Wed: 10 am- 5:30 pm  Thu: 10 am- 7 pm  Fri: 10 am- 5:30 pm  Sat: 12:30 pm- 5 pm 
Mooresville Public Library	Mooresville Public Library	Public	304 S Main St	Mooresville	28115	Iredell	http://ci.mooresville.nc.us/225/Library	(704) 664-2927	Marian Lytle	Marian Lytle	"34,000"	26.25	Mon: 9 am- 9 pm  Tue: 9 am- 9 pm  Wed: 9 am- 9 pm  Thu: 9 am- 9 pm  Fri: 9 am- 6 pm  Sat: 10 am- 3 pm 
Nantahala Regional Library	Andrews Public Library	Public	871 Main St	Andrews	28901	Cherokee	http://www.youseemore.com/Nantahala/	(828) 321-5956	Daphne Simmons		"5,768"	3.00	Mon: 8:30 am- 6 pm  Tue: 8:30 am- 8 pm  Wed: 8:30 am- 6 pm  Thu: 8:30 am- 8 pm  Fri: 9 am- 6 pm  Sat: 9 am- 3 pm 
Nantahala Regional Library	Graham County Public Library	Public	80 Knight St	Robbinsville	28771	Graham	http://www.youseemore.com/Nantahala/	(828) 479-8796	Daphne Simmons	Mary Griffin	"7,600"	2.30	Tue: 11 am- 8 pm  Wed: 9 am- 6 pm  Thu: 9 am- 6 pm  Fri: 9 am- 6 pm  Sat: 9 am- 1 pm 
Nantahala Regional Library	Moss Memorial Library	Public	26 Anderson St	Hayesville	28904	Clay	http://www.youseemore.com/Nantahala/	(828) 389-8401	Daphne Simmons	Mary Fonda	"10,500"	2.70	Tue: 9 am- 8 pm  Wed: 9 am- 5 pm  Thu: 9 am- 5 pm  Fri: 9 am- 5 pm  Sat: 9 am- 5 pm
Nantahala Regional Library	Murphy Public Library	Public	9 Blumenthal St	Murphy	28906	Cherokee	http://www.youseemore.com/Nantahala/	(828) 837-2417	Daphne Simmons	Melissa Barker	"14,000"	4.00	Mon: 9 am- 6 pm  Tue: 9 am- 6 pm  Wed: 9 am- 6 pm  Thu: 9 am- 9 pm  Fri: 9 am- 6 pm  Sat: 9 am- 2 pm 
Nantahala Regional Library	Nantahala Regional Library Bookmobile	Public	11 Blumenthal St	Murphy	28906	Cherokee	http://www.youseemore.com/Nantahala/	(828) 837-2025	Daphne Simmons	Daphne Simmons	N/A	0.94	Varies
Neuse Regional Library	Comfort Branch Library	Public	4889 Highway 41 W	Trenton	28585	Jones	http://www.neuselibrary.org/	(910) 324-5061	Melanie Morgan	Teffiney F. Maready	"1,800"	0.30	Tue: 2:30 pm -7 pm  Thu: 2:30 pm -7 pm  Sat: 11 am-2 pm 
Neuse Regional Library	Greene County Library	Public	229G Kingold Blvd	Snow Hill	28580	Greene	http://www.neuselibrary.org/	(252) 747-3437	Melanie Morgan	Donna Edwards	"8,577"	3.38	Mon: 9 am- 9 pm  Tue: 9 am- 9 pm  Wed: 9 am- 9 pm  Thu: 9 am- 9 pm  Fri: 9 am- 6 pm  Sat: 9 am- 6 pm 
Neuse Regional Library	Kinston-Lenoir County Public Library	Public	510 N Queen St	Kinston	28501	Lenoir	http://www.neuselibrary.org/	(252) 527-7066	Melanie Morgan	Melanie Morgan	"26,665"	21.28	Mon: 9 am- 9 pm  Tue: 9 am- 9 pm  Wed: 9 am- 9 pm  Thu: 9 am- 9 pm  Fri: 9 am- 6 pm  Sat: 9 am- 6 pm  Sun: 2 pm-6 pm
Neuse Regional Library	La Grange Branch Library	Public	119 E Washington St	La Grange	28551	Lenoir	http://www.neuselibrary.org/	(252) 566-3722	Melanie Morgan	Cherry Jackson	"15,000"	2.43	Mon: 9 am- 8 pm  Tue: 9 am- 6 pm  Wed: 9 am- 6 pm  Thu: 9 am- 6 pm  Fri: 9 am- 6 pm  Sat: 9 am- 6 pm 
Neuse Regional Library	Maysville Branch Library	Public	601 7th St	Maysville	28555	Jones	http://www.neuselibrary.org/	(910) 743-3796	Melanie Morgan	Karen Kahlert	"1,800"	0.63	Mon: 2 pm- 7 pm  Tue: 10 am- 6 pm  Wed: 2 pm- 6 pm  Fri: 2 pm- 6 pm  Sat: 10 am- 2 pm 
Neuse Regional Library	Pink Hill Branch Library	Public	114 W Broadway St	Pink Hill	28572	Lenoir	http://www.neuselibrary.org/	(252) 568-3631	Melanie Morgan	Sheree Casias	"3,500"	1.50	Mon: 9 am- 6 pm  Tue: 9 am- 8 pm  Wed: 9 am- 6 pm  Thu: 9 am- 7 pm  Fri: 9 am- 6 pm  Sat: 9 am- 2 pm 
Neuse Regional Library	Pollocksville Branch Library	Public	415 Green Hill St	Pollocksville	28573	Jones	http://www.neuselibrary.org/	(252) 224-5011	Melanie Morgan	Katherine J. Fagan	"1,800"	0.63	Tue: 2 pm- 7 pm  Wed: 2 pm- 7 pm  Thu: 11 am- 6 pm  Fri: 2 pm- 6 pm  Sat: 11 am- 3 pm 
Neuse Regional Library	Trenton Branch Library	Public	204 Lakeview Dr	Trenton	28585	Jones	http://www.neuselibrary.org/	(252) 448-4261	Melanie Morgan	Carol A. Lee	"1,800"	0.68	Mon: 2 pm- 7 pm  Tue: 2 pm- 7 pm  Wed: 2 pm- 6 pm  Thu: 2 pm- 7 pm  Fri: 2 pm- 6 pm  Sat: 11 am- 3 pm 
New Hanover County Public Library	Northeast Regional Library	Public	1241 Military Cutoff Rd	Wilmington	28405	New Hanover	https://library.nhcgov.com/	(910) 798-6370	Harry Tuchmayer	Leigh Thomas	"33,500"	14.00	Mon: 9 am- 8 pm  Tue: 9 am- 8 pm  Wed: 9 am- 6 pm  Thu: 9 am- 6 pm  Fri: 9 am- 5 pm  Sat: 9 am- 5 pm  Sun: 1 pm-5 pm
New Hanover County Public Library	Pleasure Island Library	Public	"1401 North Lake Blvd, Ste 72"	Carolina Beach	28428	New Hanover	https://library.nhcgov.com/	(910) 798-6380	Harry Tuchmayer	Teresa Bishop	"2,200"	2.00	Mon: 9 am- 6 pm  Tue: 9 am- 6 pm  Wed: 9 am- 6 pm  Thu: 9 am- 6 pm  Fri: 9 am- 5 pm  Sat: 9 am- 1 pm
New Hanover County Public Library	Myrtle Grove Branch Library	Public	5155 S College Rd	Wilmington	28412	New Hanover	https://library.nhcgov.com/	(910) 798-6390	Harry Tuchmayer	Patricia Dew	"6,987"	8.00	Mon: 9 am- 8 pm  Tue: 9 am- 8 pm  Wed: 9 am- 6 pm  Thu: 9 am- 6 pm  Fri: 9 am- 5 pm  Sat: 9 am- 5 pm  Sun: 1 pm-5 pm
New Hanover County Public Library	New Hanover County Public Library (Main)	Public	201 Chestnut St	Wilmington	28401	New Hanover	https://library.nhcgov.com/	(910) 798-6300	Harry Tuchmayer	Jimi Rider	"80,000"	26.00	Mon: 9 am- 8 pm  Tue: 9 am- 8 pm  Wed: 9 am- 6 pm  Thu: 9 am- 6 pm  Fri: 9 am- 5 pm  Sat: 9 am- 5 pm  Sun: 1 pm-5 pm
Northwestern Regional Library	Alleghany County Public Library	Public	115 Atwood St	Sparta	28675	Alleghany	https://nwrlibrary.org/	(336) 372-5573	Joan Sherif	Debbie Brewer	"5,548"	3.75	Mon: 8:30 am- 6 pm  Tue: 8:30 am- 5:30 pm  Wed: 8:30 am- 5:30 pm  Thu: 8:30 am- 6 pm  Fri: 8:30 am- 5:30 pm  Sat: 8:30 am- 1:30 pm
Northwestern Regional Library	Charles H. Stone Memorial Library	Public	319 W Main St	Pilot Mountain	27041	Surry	https://nwrlibrary.org/	(336) 368-2370	Joan Sherif	Anna Nichols	"7,664"	2.63	Mon: 9 am- 8 pm  Tue: 8:30 am- 5:30 pm  Wed: 8:30 am- 5:30 pm  Thu: 8:30 am- 5:30 pm  Fri: 12 pm- 5:30 pm  Sat: 9 am- 1 pm
Northwestern Regional Library	Danbury Public Library	Public	1104 Main St	Danbury	27016	Stokes	https://nwrlibrary.org/	(336) 593-2419	Joan Sherif	Lisa Lawless	"5,963"	3.38	Mon: 9 am- 5:30 pm  Tue: 9 am- 8 pm  Wed: 9 am- 5:30 pm  Thu: 9 am- 8 pm  Fri: 9 am- 5:30 pm  Sat: 9 am- 1 pm
Northwestern Regional Library	Dobson Community Library	Public	113 Crutchfield St	Dobson	27017	Surry	https://nwrlibrary.org/	(336) 386-8208	Joan Sherif	Cindy Brannock	"4,250"	2.00	Mon: 9 am-6 pm  Tue: 9 am-6 pm  Wed: 9 am-6 pm  Thu: 9 am-6 pm  Fri: 9 am-6 pm  Sat: 10 am-2 pm
Northwestern Regional Library	East Bend Public Library	Public	420 Flint Hill Rd	East Bend	27018	Yadkin	https://nwrlibrary.org/	(336) 699-3890	Joan Sherif	Susan Hutchens	"6,685"	2.00	Mon: 9 am-7 pm  Tue: 9 am-5:30 pm  Wed: 9 am-5:30 pm  Thu: 9 am-5:30 pm  Fri: 9 am-2 pm  Sat: 9 am-12 pm 
Northwestern Regional Library	Elkin Public Library	Public	111 N Front St	Elkin	28621	Surry	https://nwrlibrary.org/	(336) 835-5586	Joan Sherif	Martha Smith	"17,632"	4.51	Mon: 8:30 am- 8 pm  Tue: 8:30 am- 5:30 pm  Wed: 8:30 am- 5:30 pm  Thu: 8:30 am- 8 pm  Fri: 8:30 am- 5:30 pm  Sat: 10 am- 2 pm
Northwestern Regional Library	Jonesville Public Library	Public	560 Winston Rd	Jonesville	28642	Yadkin	https://nwrlibrary.org/	(336) 835-7604	Joan Sherif	Jennifer Rogers	"2,334"	2.00	Mon: 8:30 am- 5:30 pm  Tue: 8:30 am- 7:30 pm  Wed: 8:30 am- 5:30 pm  Thu: 8:30 am- 7:30 pm  Fri: 8:30 am- 5:30 pm  Sat: 9 am- 1 pm
Northwestern Regional Library	King Public Library	Public	101 Pilot View Dr	King	27021	Stokes	https://nwrlibrary.org/	(336) 983-3868	Joan Sherif	Ann Nichols	"12,500"	4.75	Mon: 9 am-8 pm  Tue: 9 am-8 pm  Wed: 9 am-6 pm  Thu: 9 am-8 pm  Fri: 9 am-6 pm  Sat: 10 am-2 pm 
Northwestern Regional Library	Lowgap Public Library	Public	5210 W Pine St	Lowgap	27024	Surry	https://nwrlibrary.org/	(336) 352-3000	Joan Sherif	Ronda Galyean	"1,000"	0.28	Tue: 2:30 pm-8 pm  Thu: 2:30 pm-8 pm
Northwestern Regional Library	Mount Airy Public Library	Public	145 Rockford St	Mount Airy	27030	Surry	https://nwrlibrary.org/	(336) 789-5108	Joan Sherif	Pat Gwyn	"13,450"	5.30	Mon: 8:30 am- 8 pm  Tue: 8:30 am- 8 pm  Wed: 8:30 am- 8 pm  Thu: 8:30 am- 8 pm  Fri: 8:30 am- 5 pm  Sat: 10 am- 1 pm
Northwestern Regional Library	Walnut Cove Public Library	Public	106 W Fifth St	Walnut Cove	27052	Stokes	https://nwrlibrary.org/	(336) 591-7496	Joan Sherif	Christine Boles	"8,032"	2.63	Mon: 9 am-5:30 pm  Tue: 9 am-8 pm  Wed: 9 am-5:30 pm  Thu: 9 am-8 pm  Fri: 9 am-5:30 pm  Sat: 9 am-1 pm 
Northwestern Regional Library	Yadkin County Public Library	Public	233 E Main St	Yadkinville	27055	Yadkin	https://nwrlibrary.org/	(336) 679-8792	Joan Sherif	Malinda Sells	"10,000"	3.50	Mon: 8:30 am- 6:30 pm  Tue: 8:30 am- 5:30 pm  Wed: 8:30 am- 5:30 pm  Thu: 8:30 am- 6:30 pm  Fri: 8:30 am- 5:30 pm
Northwestern Regional Library	Boonville Community Public Library	Public	121 W Main St	Boonville	27011	Yadkin	https://nwrlibrary.org/	(336) 367-7737	Joan Sherif	Angie Walker	"3,050"	1.50	Mon: 9:30 am- 6 pm  Tue: 9:30 am- 5:30 pm  Wed: 9:30 am- 5:30 pm  Thu: 9:30 am- 6 pm  Fri: 9:30 am- 5:30 pm  Sat: 10 am- 1 pm
Northwestern Regional Library	Danbury Public Library Bookmobile	Public	1104 Main St	Danbury	27016	Stokes	https://nwrlibrary.org/	(336) 593-2419	Joan Sherif	Ronda Wilkins	N/A	0.63	Varies
Onslow County Public Library	Onslow County Public Library (Main)	Public	58 Doris Avenue E	Jacksonville	28540	Onslow	http://www.onslowcountync.gov/150/Library	(910) 455-7350	Virginia March	Virginia March	"13,875"	20.50	Mon: 9 am-9 pm  Tue: 9 am-9 pm  Wed: 9 am-9 pm  Thu: 9 am-9 pm  Fri: 9 am-6 pm  Sat: 9 am-6 pm  Sun: 1 pm-5 pm
Onslow County Public Library	Richlands Public Library	Public	299 S Wilmington St	Richlands	28574	Onslow	http://www.onslowcountync.gov/150/Library	(910) 324-5321	Virginia March	Katie Lawson	"3,000"	4.00	Mon: 9 am-6 pm  Tue: 9 am-6 pm  Wed: 9 am-6 pm  Thu: 10 am-7 pm  Fri: 9 am-6 pm  Sat: 9 am-3 pm
Onslow County Public Library	Sneads Ferry Branch Library	Public	1330 Highway 210	Sneads Ferry	28460	Onslow	http://www.onslowcountync.gov/150/Library	(910) 327-6471	Virginia March	Liza Barrett	"11,772"	4.00	Mon: 9 am-6 pm  Tue: 9 am-6 pm  Wed: 9 am-6 pm  Thu: 10 am-7 pm  Fri: 9 am-6 pm  Sat: 9 am-3 pm
Onslow County Public Library	Swansboro Branch Library	Public	1460 W Corbett Ave	Swansboro	28584	Onslow	http://www.onslowcountync.gov/150/Library	(910) 326-4888	Virginia March	Tracy Daly	"5,489"	4.00	Mon: 9 am-6 pm  Tue: 9 am-6 pm  Wed: 9 am-6 pm  Thu: 10 am-7 pm  Fri: 9 am-6 pm  Sat: 9 am-3 pm
Orange County Public Library	Carrboro Branch Library/McDougle Middle School	Public	900 Old Fayetteville Rd	Chapel Hill	27516	Orange	http://www.orangecountync.gov/156/Library	(919) 969-3006	Lucinda Munger	Jody Smith	"7,000"	1.63	Mon: 3:30 pm-8 pm  Tue: 3:30 pm-8 pm  Wed: 3:30 pm-8 pm  Thu: 3:30 pm-8 pm  Sat: 10 am-2 pm  Sun: 1 pm-5 pm
Orange County Public Library	Carrboro Cybrary	Public	100 N Greensboro St	Carrboro	27510	Orange	http://www.orangecountync.gov/156/Library	(919) 918-7387	Lucinda Munger	Jody Smith	"1,060"	0.75	Mon: 9 am-4 pm  Tue: 9 am-4 pm  Wed: 9 am-4 pm  Thu: 9 am-4 pm  Fri: 9 am-4 pm  Sat: 10 am-2 pm
Orange County Public Library	Orange County Public Library (Main)	Public	137 W Margaret Ln	Hillsborough	27278	Orange	http://www.orangecountync.gov/156/Library	(919) 245-2525	Lucinda Munger	Lucinda Munger	"23,500"	21.75	Mon: 9 am-8 pm  Tue: 9 am-8 pm  Wed: 9 am-8 pm  Thu: 9 am-8 pm  Fri: 9 am-6 pm  Sat: 9 am-6 pm  Sun: 12 pm-6 pm
Pender County Public Library	Hampstead Branch Library	Public	75 Library Dr	Hampstead	28443	Pender	http://penderpubliclibrary.org/	(910) 270-4603	Mike Taylor	Marsha Dees	"7,000"	4.87	Mon: 10 am-6 pm  Tue: 10 am-7 pm  Wed: 10 am-6 pm  Thu: 10 am-7 pm  Fri: 10 am-6 pm  Sat: 10 am-2 pm
Pender County Public Library	Pender County Public Library (Main)	Public	103 S Cowan St	Burgaw	28425	Pender	http://penderpubliclibrary.org/	(910) 259-1234	Mike Taylor	Mike Taylor	"14,000"	8.56	Mon: 10 am-6 pm  Tue: 10 am-7 pm  Wed: 10 am-6 pm  Thu: 10 am-7 pm  Fri: 10 am-6 pm  Sat: 10 am-2 pm
Perry Memorial Library	Perry Memorial Library	Public	205 Breckenridge St	Henderson	27536	Vance	http://library.perrylibrary.org/home	(252) 438-3316	Patti McAnally 	Patti McAnally	"38,000"	15.00	Mon: 10 am-8 pm Tue: 10 am-8 pm Wed: 10 am-6 pm Thu: 10 am-6 pm Fri: 10 am-6 pm Sat: 10 am-2 pm Sun: 1 pm-5 pm
Person County Public Library	Person County Public Library	Public	319 S Main St	Roxboro	27573	Person	http://library.personcountync.gov	(336) 597-7881	Christy Bondy	Christy M Bondy	"12,700"	7.00	Mon: 9 am-6 pm  Tue: 9 am-6 pm  Wed: 9 am-6 pm  Thu: 9 am-6 pm  Fri: 9 am-5 pm  Sat: 10 am-4 pm 
Pettigrew Regional Library	Perquimans County Library	Public	514 S Church St	Hertford	27944	Perquimans	http://pettigrewlibraries.libguides.com/PRL	(252) 426-5319	Judi Bugniazet	Michele Lawrence	"5,320"	4.10	Mon: 9:30 am-7 pm  Tue: 9:30 am-7 pm  Wed: 9:30 am-5 pm  Thu: 9:30 am-7 pm  Fri: 9:30 am-5 pm  Sat: 9:30 am-12 pm
Pettigrew Regional Library	Shepard-Pruden Memorial Library	Public	106 W Water St	Edenton	27932	Chowan	http://pettigrewlibraries.libguides.com/PRL	(252) 482-4112	Judi Bugniazet	Jennifer Finlay	"12,000"	4.30	Mon: 10 am-7 pm Tue: 10 am-7 pm Wed: 10 am-5 pm Thu: 10 am-7 pm Fri: 10 am-5 pm Sat: 10 am-1 pm
Pettigrew Regional Library	Tyrrell County Library	Public	414 Main St	Columbia	27925	Tyrrell	http://pettigrewlibraries.libguides.com/PRL	(252) 796-3771	Judi Bugniazet	Jared Jacavone	"7,875"	3.07	Mon: 10 am-6 pm  Tue: 10 am-8 pm  Wed: 10 am-6 pm  Thu: 10 am-8 pm  Fri: 10 am-6 pm  Sat: 10 am-1 pm
Pettigrew Regional Library	Washington County Library	Public	201 E Third St	Plymouth	27962	Washington	http://pettigrewlibraries.libguides.com/PRL	(252) 793-2113	Judi Bugniazet	Matthew Beard	"6,444"	4.18	Mon: 9:30 am-7 pm  Tue: 9:30 am-7 pm  Wed: 9:30 am-5 pm  Thu: 9:30 am-7 pm  Fri: 9:30 am-5 pm  Sat: 9:30 am-12 pm
Polk County Public Libraries	Saluda Library	Public	44 West Main St	Saluda	28773	Polk	https://polklibrary.org/	(828) 749-2117	Rishara Finsel	Bob McCall	"6,587"	2.25	Mon: 9 am-6 pm  Tue: 9 am-6 pm  Wed: 9 am-6 pm  Thu: 9 am-6 pm  Fri: 9 am-6 pm  Sat: 9 am-1 pm
Polk County Public Libraries	Columbus Library (Main)	Public	1289 W Mills St	Columbus	28722	Polk	https://polklibrary.org/	(828) 894-8721	Rishara Finsel	Wanangwa Dever	"17,783"	8.50	Mon: 9 am-6 pm  Tue: 9 am-8 pm  Wed: 9 am-8 pm  Thu: 9 am-8 pm  Fri: 9 am-6 pm  Sat: 9 am-4 pm
Public Library Of Johnston County & Smithfield	James Bryan Creech Library	Public	206 W Hatcher St	Four Oaks	27524	Johnston	https://www.pljcs.org/	(919) 963-6013	Margaret Marshall	Tonie Collins	"2,250"	0.55	Tue: 1:30 pm-5:30 pm  Wed: 10 am-6 pm  Thu: 1:30 pm-5:30 pm  Fri: 1 pm-7 pm  Sat: 1 pm-5 pm
Public Library Of Johnston County & Smithfield	Kenly Public Library	Public	205 Edgerton St	Kenly	27542	Johnston	https://www.pljcs.org/	(919) 284-4217	Margaret Marshall	Betty Pope	"2,400"	1.70	Mon: 9 am-5:30 pm  Tue: 9 am-7 pm  Wed: 9 am-5:30 pm  Thu: 9 am-7 pm  Fri: 9 am-5 pm  Sat: 9 am-12 pm
Public Library Of Johnston County & Smithfield	Mary Duncan Public Library	Public	100 W Main St	Benson	27504	Johnston	https://www.pljcs.org/	(919) 894-3724	Margaret Marshall	Terry Hobgood	"4,000"	2.75	Mon: 9 am-7 pm  Tue: 9 am-7 pm  Wed: 9 am-7 pm  Thu: 9 am-7 pm  Fri: 9 am-5 pm  Sat: 9 am-12 pm
Public Library Of Johnston County & Smithfield	Princeton Public Library	Public	"101 Doctor Donnie H. Jones, Jr Blvd"	Princeton	27569	Johnston	https://www.pljcs.org/	(919) 936-9996	Margaret Marshall	Freda Fell	"5,508"	0.30	Mon: 4 pm-7 pm  Tue: 4 pm-7 pm  Thu: 4 pm-7 pm  Sun: 2 pm-5 pm
Public Library Of Johnston County & Smithfield	Public Library Of Johnston County & Smithfield (Main)	Public	305 Market St	Smithfield	27577	Johnston	https://www.pljcs.org/	(919) 934-8146	Margaret Marshall	Margaret Marshall	"35,000"	15.60	Mon: 9 am-8 pm  Tue: 9 am-5:30 pm  Wed: 9 am-5:30 pm  Thu: 9 am-8 pm  Fri: 9 am-5:30 pm  Sat: 9 am-5 pm
Public Library Of Johnston County & Smithfield	Public Library Of Johnston County & Smithfield Bookmobile	Public	305 Market St	Smithfield	27577	Johnston	https://www.pljcs.org/	(919) 934-8146	Margaret Marshall	Raquel Aguilera	N/A	1.50	Varies
Public Library Of Johnston County & Smithfield	Selma Public Library	Public	301 N Pollock St	Selma	27576	Johnston	https://www.pljcs.org/	(919) 965-8613	Margaret Marshall	Phyllis Brown	"4,469"	2.50	Mon: 9 am-6 pm  Tue: 9 am-6 pm  Wed: 9 am-6 pm  Thu: 9 am-8 pm  Fri: 9 am-5 pm  Sat: 9 am-12 pm
Randolph Public Library	Archdale Public Library	Public	10433 S Main St	Archdale	27263	Randolph	http://www.randolphlibrary.org/	(336) 431-3811	Ross Holt	Matthew Shaw	"12,848"	5.03	Mon: 9 am-8 pm  Tue: 9 am-8 pm  Wed: 9 am-8 pm  Thu: 9 am-8 pm  Fri: 9 am-6 pm  Sat: 9 am-5 pm 
Randolph Public Library	John W. Clark Public Library	Public	111 Sumner Pl	Franklinville	27248	Randolph	http://www.randolphlibrary.org/	(336) 824-4020	Ross Holt	Carmen Carron	"3,000"	0.58	Mon: 2 pm-6 pm  Tue: 2 pm-6 pm  Wed: 10 am-2 pm  Thu: 2 pm-6 pm  Fri: 2 pm-6 pm  Sun: 2 pm-5 pm
Randolph Public Library	Liberty Public Library	Public	239 S Fayetteville St	Liberty	27298	Randolph	http://www.randolphlibrary.org/	(336) 622-4605	Ross Holt	Charity Johnson	"3,858"	3.00	Mon: 9 am-5 pm  Tue: 9 am-7 pm  Wed: 9 am-5 pm  Thu: 9 am-5 pm  Fri: 9 am-5 pm  Sat: 9 am-1 pm
Randolph Public Library	Ramseur Public Library	Public	1512 Main St	Ramseur	27316	Randolph	http://www.randolphlibrary.org/	(336) 824-2232	Ross Holt	Sandra Livingston	"4,200"	2.00	Mon: 8:30 am-5 pm  Tue: 8:30 am-5 pm  Wed: 8:30 am-5 pm  Thu: 8:30 am-5 pm  Fri: 8:30 am-5 pm
Randolph Public Library	Randleman Public Library	Public	142 W Academy Street	Randleman	27317	Randolph	http://www.randolphlibrary.org/	(336) 498-3141	Ross Holt	Donna Toomes	"12,306"	4.15	Mon: 9 am-6 pm  Tue: 9 am-7 pm  Wed: 9 am-7 pm  Thu: 9 am-6 pm  Fri: 9 am-6 pm  Sat: 9 am-1 pm
Randolph Public Library	Randolph Public Library (Main)	Public	201 Worth St	Asheboro	27203	Randolph	http://www.randolphlibrary.org/	(336) 318-6800	Ross Holt	Ross Holt	"25,000"	26.52	Mon: 9 am-9 pm  Tue: 9 am-9 pm  Wed: 9 am-9 pm  Thu: 9 am-9 pm  Fri: 9 am-6 pm  Sat: 9 am-5 pm 
Randolph Public Library	Seagrove Public Library	Public	530 Seagrove Plank Rd	Seagrove	27341	Randolph	http://www.randolphlibrary.org/	(336) 873-7521	Ross Holt	Barbara Luther	"5,500"	1.87	Mon: 1 pm-7 pm  Tue: 1 pm-7 pm  Wed: 1 pm-7 pm  Thu: 1 pm-7 pm  Fri: 12 pm-6 pm  Sat: 10 am-3 pm 
Roanoke Rapids Public Library	Roanoke Rapids Public Library	Public	319 Roanoke Ave	Roanoke Rapids	27870	Halifax	http://www.youseemore.com/RoanokeRapids/	(252) 533-2890	Jeffrey C. Watson	Jeffrey C. Watson	"7,550"	4.94	Mon: 10 am-7 pm  Tue: 10 am-7 pm  Wed: 10 am-6 pm  Thu: 10 am-6 pm  Fri: 10 am-6 pm  Sat: 10 am-3 pm 
Robeson County Public Library	McMillan Memorial Library	Public	205 E 2nd Ave	Red Springs	28377	Robeson	http://robesoncountylibrary.libguides.com/RCPL	(910) 843-4205	Katie Fountain	Autumn Scott	"2,040"	0.65	Mon: 2 pm-6 pm  Tue: 2 pm-6 pm  Wed: 2 pm-6 pm  Thu: 2 pm-6 pm  Fri: 2 pm-6 pm
Robeson County Public Library	Gilbert Patterson Memorial Public Library	Public	210 N Florence St	Maxton	28364	Robeson	http://robesoncountylibrary.libguides.com/RCPL	(910) 844-3884	Katie Fountain	Cynthia Lester	"4,050"	1.05	Mon: 11 am-6 pm  Tue: 11 am-8 pm  Wed: 11 am-6 pm  Thu: 11 am-8 pm  Fri: 11 am-6 pm  Sat: 11 am-2 pm
Robeson County Public Library	Hector MacLean Public Library	Public	106 S Main St	Fairmont	28340	Robeson	http://robesoncountylibrary.libguides.com/RCPL	(910) 628-9331	Katie Fountain	Tyree Robinson	"3,330"	0.60	Mon: 1 pm-6 pm  Tue: 1 pm-6 pm  Wed: 1 pm-6 pm  Thu: 1 pm-6 pm  Fri: 1 pm-6 pm
Robeson County Public Library	Pembroke Public Library	Public	413 S Blaine St	Pembroke	28372	Robeson	http://robesoncountylibrary.libguides.com/RCPL	(910) 521-1554	Katie Fountain	Caroline Locklear	"4,400"	1.50	Mon: 9 am-12 pm; 1 pm-9 pm  Tue: 9 am-12 pm; 1 pm-9 pm  Wed: 9 am-12 pm; 1 pm-9 pm  Thu: 1 pm-8 pm  Fri: 9 am-12 pm; 1 pm-6 pm 
Robeson County Public Library	Robeson County Public Library (Main)	Public	101 N Chestnut St	Lumberton	28358	Robeson	http://robesoncountylibrary.libguides.com/RCPL	(910) 738-4859	Katie Fountain	Katie Fountain	"18,000"	13.21	Mon: 9 am-6 pm  Tue: 9 am-9 pm  Wed: 9 am-6 pm  Thu: 9 am-9 pm  Fri: 9 am-6 pm  Sat: 9 am-6 pm 
Robeson County Public Library	Rowland Public Library	Public	113 E Main St	Rowland	28383	Robeson	http://robesoncountylibrary.libguides.com/RCPL	(910) 422-3996	Katie Fountain	Zach Bullard	"4,268"	0.50	Mon: 2 pm-6 pm  Tue: 2 pm-6 pm  Wed: 2 pm-6 pm  Thu: 2 pm-6 pm  Fri: 2 pm-6 pm
Robeson County Public Library	Robeson County Public Library Bookmobile	Public	101 N Chestnut St	Lumberton	28358	Robeson	http://robesoncountylibrary.libguides.com/RCPL	(910) 738-4859	Katie Fountain	Lauren Piszczor	N/A	0.58	Varies
Robeson County Public Library	St. Pauls Public Library	Public	221 W Broad St	Saint Pauls	28384	Robeson	http://robesoncountylibrary.libguides.com/RCPL	(910) 865-4002	Katie Fountain	Joy Andrews	"2,020"	1.05	Mon: 11 am-6 pm  Tue: 11 am-6 pm  Wed: 11 am-6 pm  Thu: 11 am-6 pm  Fri: 11 am-2 pm
Rockingham County Public Library	Eden Branch Library	Public	598 S Pierce St	Eden	27288	Rockingham	https://rcpl.libguides.com/RockinghamCountyPublicLibrary/Home	(336) 623-3168	Michael Roche	Katherine Seaver	"15,300"	7.21	Mon: 9 am-8 pm  Tue: 9 am-6 pm  Wed: 9 am-6 pm  Thu: 9 am-8 pm  Fri: 9 am-6 pm  Sat: 9 am-4 pm
Rockingham County Public Library	Madison-Mayodan Public Library	Public	611 Burton St	Madison	27025	Rockingham	https://rcpl.libguides.com/RockinghamCountyPublicLibrary/Home	(336) 548-6553	Michael Roche	Joan Waynick	"12,300"	5.00	Mon: 9 am-8 pm  Tue: 9 am-6 pm  Wed: 9 am-6 pm  Thu: 9 am-8 pm  Fri: 9 am-6 pm  Sat: 9 am-4 pm
Rockingham County Public Library	Reidsville Branch Library	Public	204 W Morehead St	Reidsville	27320	Rockingham	https://rcpl.libguides.com/RockinghamCountyPublicLibrary/Home	(336) 349-8476	Michael Roche	Calvert Smith	"12,600"	6.21	Mon: 9 am-8 pm  Tue: 9 am-6 pm  Wed: 9 am-6 pm  Thu: 9 am-8 pm  Fri: 9 am-6 pm  Sat: 9 am-4 pm
Rockingham County Public Library	Rockingham County Public Library Bookmobile	Public	527 Boone Rd	Eden	27288	Rockingham	https://rcpl.libguides.com/RockinghamCountyPublicLibrary/Home	(336) 627-1106	Michael Roche	Michael Roche	"5,500"	8.14	Varies
Rockingham County Public Library	Stoneville Branch Library	Public	201 E Main St	Stoneville	27048	Rockingham	https://rcpl.libguides.com/RockinghamCountyPublicLibrary/Home	(336) 573-9040	Michael Roche	Julia Johnson	"3,990"	1.74	Mon: 12 pm-5 pm  Tue: 1 pm-6 pm  Wed: 12 pm-5 pm  Thu: 1 pm-8 pm  Fri: 10 am-6 pm
Rowan Public Library	East Branch Library	Public	110 Broad St	Rockwell	28138	Rowan	https://www.rowancountync.gov/307/Library	(704) 216-7838	Jeff Hall	Brooke Taylor	"7,000"	4.82	Mon: 9 am-8 pm  Tue: 9 am-8 pm  Wed: 9 am-8 pm  Thu: 9 am-5 pm  Fri: 9 am-5 pm  Sat: 10 am-1 pm 
Rowan Public Library	Rowan Public Library (Main)	Public	201 W Fisher St	Salisbury	28144	Rowan	https://www.rowancountync.gov/307/Library	(704) 216-8228	Jeff Hall	Melissa Oleen	"47,500"	29.63	Mon: 9 am-9 pm  Tue: 9 am-9 pm  Wed: 9 am-9 pm  Thu: 9 am-6 pm  Fri: 9 am-5 pm  Sat: 9 am-5 pm 
Rowan Public Library	Rowan Public Library Bookmobile	Public	201 W Fisher St	Salisbury	28144	Rowan	https://www.rowancountync.gov/307/Library	(704) 216-8270	Jeff Hall	Melissa Oleen	N/A	2.60	Varies
Rowan Public Library	South Rowan Regional Library	Public	920 Kimball Rd	China Grove	28088	Rowan	https://www.rowancountync.gov/307/Library	(704) 216-7727	Jeff Hall	Laurie Lyda	"23,000"	8.93	Mon: 9 am-9 pm  Tue: 9 am-9 pm  Wed: 9 am-9 pm  Thu: 9 am-6 pm  Fri: 9 am-5 pm  Sat: 9 am-5 pm 
Rutherford County Library	Haynes Public Library	Public	"141 N Main St, Ste 110"	Henrietta	28076	Rutherford	http://www.rutherfordcountylibrary.org/	(828) 288-4039	April Young	Erika Woody	"4,000"	1.42	Mon: 10 am-6 pm  Tue: 10 am-6 pm  Wed: 10 am-5 pm  Thu: 10 am-6 pm  Fri: 10 am-6 pm  Sat: 10 am-1 pm
Rutherford County Library	Mountains Branch Library	Public	150 Bills Creek Rd	Lake Lure	28746	Rutherford	http://www.rutherfordcountylibrary.org/	(828) 287-6392	April Young	Joy Sharp	"6,000"	1.88	Mon: 10 am-6 pm  Tue: 10 am-6 pm  Wed: 10 am-3 pm  Thu: 10 am-6 pm  Fri: 10 am-6 pm  Sat: 10 am-3 pm
Rutherford County Library	Rutherford County Library (Main)	Public	255 Callahan Koon Rd	Spindale	28160	Rutherford	http://www.rutherfordcountylibrary.org/	(828) 287-6115	April Young	April Young	"7,281"	6.12	Mon: 9:30 am-5:30 pm  Tue: 9:30 am-5:30 pm  Wed: 9:30 am-5:30 pm  Thu: 9:30 am-8 pm  Fri: 9:30 am-5:30 pm  Sat: 10 am-3 pm
Sampson-Clinton Public Library	Bryan Memorial Library	Public	302 W Weeksdale St	Newton Grove	28366	Sampson	http://www.sampsonnc.com/departments/library_services/	(910) 594-1260	Heather Bonney	Jean Simmons	"3,000"	1.80	Mon: 9 am-1:30 pm; 2:30 pm-6 pm  Tue: 9 am-1:30 pm; 2:30 pm-6 pm  Thu: 9 am-1:30 pm; 2:30 pm-6 pm  Fri: 9 am-1:30 pm; 2:30 pm-6 pm
Sampson-Clinton Public Library	Miriam B. Lamb Memorial Library	Public	144 S Church Ave	Garland	28441	Sampson	http://www.sampsonnc.com/departments/library_services/	(910) 529-2441	Heather Bonney	Colanda Faison	"1,200"	1.80	Mon: 9 am-12:30 pm; 1:30 pm-6 pm  Tue: 9 am-12:30 pm; 1:30 pm-6 pm  Wed: 9 am-12:30 pm; 1:30 pm-6 pm  Fri: 9 am-12:30 pm; 1:30 pm-6 pm
Sampson-Clinton Public Library	Roseboro Public Library	Public	300 W Roseboro St	Roseboro	28382	Sampson	http://www.sampsonnc.com/departments/library_services/	(910) 525-5436	Heather Bonney	Deborah Dudley	"2,520"	1.80	Mon: 9 am-1:30 pm; 2:30 pm-6 pm  Wed: 9 am-1:30 pm; 2:30 pm-6 pm  Thu: 9 am-1:30 pm; 2:30 pm-6 pm  Fri: 9 am-1:30 pm; 2:30 pm-6 pm
Sampson-Clinton Public Library	J.C. Holliday Library (Main)	Public	217 Graham St	Clinton	28328	Sampson	http://www.sampsonnc.com/departments/library_services/	(910) 592-4153	Heather Bonney	Stephanie Johnson	"9,600"	7.95	Mon: 9 am-6 pm  Tue: 9 am-6 pm  Wed: 9 am-6 pm  Thu: 9 am-6 pm  Fri: 9 am-6 pm  Sat: 11 am-5 pm 
Sandhill Regional Library System	Anson County Bookmobile	Public	120 S Greene St	Wadesboro	28170	Anson	https://srls.libguides.com/c.php?g=824539	(704) 695-4263	Jesse Gibson	Aaron Mehaffey	N/A	1.00	Varies
Sandhill Regional Library System	Moore County Bookmobile	Public	101 Saunders St	Carthage	28327	Moore	https://srls.libguides.com/c.php?g=824540	(910) 695-6153	Jesse Gibson	Alice Thomas	N/A	1.20	Varies
Sandhill Regional Library System	Allen Library	Public	307 Page St	Biscoe	27209	Montgomery	https://srls.libguides.com/c.php?g=824541	(910) 428-2551	Jesse Gibson	Dianne Saunders	"2,000"	0.50	Mon: 2 pm-6 pm  Tue: 2 pm-6 pm  Wed: 9:30 am-1 pm  Thu: 2 pm-6 pm  Fri: 9:30 am-1 pm
Sandhill Regional Library System	Currie Memorial Library	Public	138 S School St	Candor	27229	Montgomery	https://srls.libguides.com/c.php?g=824542	(910) 974-4033	Jesse Gibson	Cathy Harris	"1,633"	0.50	Mon: 2 pm-6 pm  Tue: 2 pm-6 pm  Wed: 2 pm-6 pm  Thu: 2 pm-6 pm  Fri: 2 pm-6 pm
Sandhill Regional Library System	Hamlet Public Library	Public	302 Main St	Hamlet	28345	Richmond	https://srls.libguides.com/c.php?g=824543	(910) 582-3477	Jesse Gibson	Carmella Johnson	"8,396"	3.00	Mon: 9:30 am-6 pm  Tue: 9:30 am-6 pm  Wed: 9:30 am-6 pm  Thu: 9:30 am-6 pm  Fri: 9:30 am-6 pm  Sat: 9:30 am-12:30 pm
Sandhill Regional Library System	Hampton B. Allen Library	Public	120 S Greene St	Wadesboro	28170	Anson	https://srls.libguides.com/c.php?g=824544	(704) 694-5177	Jesse Gibson	Aaron Mehaffey	"22,500"	4.59	Mon: 9 am-5:30 pm  Tue: 9 am-5:30 pm  Wed: 9 am-5:30 pm  Thu: 9 am-5:30 pm  Fri: 9 am-5:30 pm  Sat: 12 pm-3 pm
Sandhill Regional Library System	Hoke County Public Library	Public	334 N Main St	Raeford	28376	Hoke	https://srls.libguides.com/c.php?g=824545	(910) 875-2502	Jesse Gibson	Sheila Evans	"13,992"	8.15	Mon: 8 am-6 pm  Tue: 8 am-8 pm  Wed: 8 am-6 pm  Thu: 8 am-8 pm  Fri: 8 am-6 pm  Sat: 8 am-4 pm
Sandhill Regional Library System	Kemp Sugg Memorial Library	Public	279 2nd St	Ellerbe	28338	Richmond	https://srls.libguides.com/c.php?g=824546	(910) 652-6130	Jesse Gibson	Ashley Scott	"1,800"	1.00	Mon: 9 am-1 pm; 2 pm-6 pm  Tue: 9 am-1 pm; 2 pm-5 pm  Wed: 10 am-1 pm  Thu: 9 am-1 pm; 2 pm-5 pm  Fri: 9 am-1 pm; 2 pm-5 pm
Sandhill Regional Library System	Leath Memorial Library	Public	412 E Franklin St	Rockingham	28379	Richmond	https://srls.libguides.com/c.php?g=824547	(910) 895-6337	Jesse Gibson	Jesse Gibson	"14,588"	6.55	Mon: 9 am-7 pm  Tue: 9 am-6 pm  Wed: 9 am-6 pm  Thu: 9 am-6 pm  Fri: 9 am-5 pm  Sat: 9 am-5 pm 
Sandhill Regional Library System	Montgomery County Library	Public	215 W Main St	Troy	27371	Montgomery	https://srls.libguides.com/c.php?g=824548	(910) 572-1311	Jesse Gibson	David Atkins	"10,294"	6.50	Mon: 9:30 am-6 pm  Tue: 9:30 am-6 pm  Wed: 9:30 am-6 pm  Thu: 9:30 am-6 pm  Fri: 9:30 am-6 pm  Sat: 9:30 am-12:30 pm
Sandhill Regional Library System	Moore County Library	Public	101 Saunders St	Carthage	28327	Moore	https://srls.libguides.com/c.php?g=824549	(910) 947-5335	Jesse Gibson	Alice Thomas	"10,200"	6.57	Mon: 9 am-6 pm  Tue: 9 am-6 pm  Wed: 9 am-6 pm  Thu: 9 am-6 pm  Fri: 9 am-6 pm  Sat: 10 am-4 pm 
Sandhill Regional Library System	Mount Gilead Library	Public	110 W Allenton St	Mount Gilead	27306	Montgomery	https://srls.libguides.com/c.php?g=824550	(910) 439-6651	Jesse Gibson	Cindy Brooks	"1,182"	0.50	Mon: 2 pm-6 pm  Tue: 2 pm-6 pm  Thu: 2 pm-6 pm  Fri: 2 pm-6 pm
Sandhill Regional Library System	Page Memorial Library	Public	100 S Poplar St	Aberdeen	28315	Moore	https://srls.libguides.com/c.php?g=824551	(910) 944-1200	Jesse Gibson	Margaret Porterfield	960	0.50	Mon: 2 pm-6 pm  Tue: 9 am-1 pm  Wed: 2 pm-6 pm  Thu: 9 am-1 pm  Fri: 2 pm-6 pm
Sandhill Regional Library System	Pinebluff Public Library	Public	305 E Baltimore Ave	Pinebluff	28373	Moore	https://srls.libguides.com/c.php?g=824552	(910) 281-3004	Jesse Gibson	Patty Underwood	"2,000"	0.50	Mon: 9 am-1 pm  Tue: 2 pm-6 pm  Wed: 9 am-1 pm  Thu: 2 pm-6 pm  Fri: 2 pm-6 pm
Sandhill Regional Library System	Robbins Area Library	Public	161 E Magnolia Dr	Robbins	27325	Moore	https://srls.libguides.com/c.php?g=824553	(910) 948-4000	Jesse Gibson	Sue Aklus	"2,500"	1.40	Tue: 10 am-8 pm  Wed: 9 am-6 pm  Thu: 9 am-6 pm  Fri: 9 am-6 pm  Sat: 10 am-2 pm
Sandhill Regional Library System	Star Branch Library	Public	222 S Main St	Star	27356	Montgomery	https://srls.libguides.com/c.php?g=824554	(910) 428-2338	Jesse Gibson	Shannon Dolgos	370	0.50	Mon: 2 pm-6 pm  Tue: 9:30 am-1:30 pm  Wed: 9:30 am-1:30 pm  Thu: 2 pm-6 pm  Fri: 2 pm-6 pm
Sandhill Regional Library System	Vass Area Library	Public	128 Seaboard St	Vass	28394	Moore	https://srls.libguides.com/c.php?g=824555	(910) 245-2200	Jesse Gibson	Debbie Seal	"3,610"	1.40	Mon: 9 am-6 pm  Tue: 10 am-8 pm  Wed: 9 am-6 pm  Thu: 9 am-6 pm  Fri: 9 am-6 pm  Sat: 10 am-2 pm 
Scotland County Memorial Library	Scotland County Memorial Library	Public	312 W Church St	Laurinburg	28352	Scotland	http://www.scotlandcounty.org/188/Library	(910) 276-0563	Leon L. Gyles	Leon Gyles	"8,400"	5.90	Mon: 9:30 am-6 pm  Tue: 9:30 am-6 pm  Wed: 9:30 am-6 pm  Thu: 9:30 am-6 pm  Fri: 9:30 am-6 pm  Sat: 9 am-2 pm
Scotland County Memorial Library	Scotland County Memorial Library Bookmobile	Public	312 W Church St	Laurinburg	28352	Scotland	http://www.scotlandcounty.org/188/Library	(910) 276-0563	Leon L. Gyles	Leon Gyles	N/A	0.40	Varies
Sheppard Memorial Library	Blount Library	Public	201 Ives St	Bethel	27812	Pitt	http://sheppardlibrary.org/home	(252) 825-0782	Greg Needham	Mildred Elliott	"2,115"	0.54	Tue: 1 pm-5 pm  Wed: 1 pm-5 pm  Thu: 1 pm-5 pm 
Sheppard Memorial Library	Winterville Public Library	Public	2613 Railroad St	Winterville	28590	Pitt	http://sheppardlibrary.org/home	(252) 756-1786	Greg Needham	Amanda Prokop	"6,200"	3.78	Mon: 9 am-8 pm  Tue: 9 am-8 pm  Wed: 9 am-8 pm  Thu: 9 am-8 pm  Fri: 9 am-6 pm  Sat: 1 pm-5 pm
Sheppard Memorial Library	Carver Branch Library	Public	618 W 14th Ave	Greenville	27834	Pitt	http://sheppardlibrary.org/home	(252) 329-4583	Greg Needham	Mildred Elliott	"8,400"	3.60	Mon: 9 am-8 pm  Tue: 9 am-8 pm  Wed: 9 am-8 pm  Thu: 9 am-8 pm  Fri: 9 am-6 pm  Sat: 11 am-3 pm
Sheppard Memorial Library	East Branch Library	Public	2000 Cedar Ln	Greenville	27858	Pitt	http://sheppardlibrary.org/home	(252) 329-4582	Greg Needham	Kisha Green	"6,260"	3.80	Mon: 9 am-8 pm  Tue: 9 am-8 pm  Wed: 9 am-8 pm  Thu: 9 am-8 pm  Fri: 9 am-6 pm  Sat: 11 am-3 pm
Sheppard Memorial Library	Sheppard Memorial Library (Main)	Public	530 S Evans St	Greenville	27858	Pitt	http://sheppardlibrary.org/home	(252) 329-4580	Greg Needham	Tammy Fulcher	"60,500"	22.51	Mon: 9 am-9 pm  Tue: 9 am-9 pm  Wed: 9 am-9 pm  Thu: 9 am-9 pm  Fri: 9 am-6 pm  Sat: 9 am-6 pm  Sun: 2 pm-5 pm
Sheppard Memorial Library	Pitt County Bookmobile	Public	530 S Evans St	Greenville	27858	Pitt	http://sheppardlibrary.org/home	(252) 329-4251	Greg Needham	Hilliard Woolard	140	0.93	Varies
Southern Pines Public Library	Southern Pines Public Library	Public	170 W Connecticut Ave	Southern Pines	28387	Moore	https://www.southernpines.net/399/Library-and-Information-Technology-Servi	(910) 692-8235	Lynn Thompson	Lynn Thompson	"14,750"	10.45	Mon: 10 am-7 pm  Tue: 10 am-7 pm  Wed: 10 am-7 pm  Thu: 10 am-7 pm  Fri: 10 am-5 pm  Sat: 10 am-5 pm  Sun: 2 pm-5 pm
Stanly County Public Library	Badin Branch Library	Public	62 Pine St	Badin	28009	Stanly	http://www.stanlycountylibrary.org/	(704) 423-3218	Melanie Holles	Treva Allmon	"1,344"		Mon: 3 pm-7 pm  Tue: 10 am-2 pm  Thu: 3 pm-7 pm
Stanly County Public Library	Locust Branch Library	Public	213 Town Centre Dr	Locust	28097	Stanly	http://www.stanlycountylibrary.org/	(704) 888-0103	Melanie Holles	Karen Hartsell	"2,280"		Mon: 9 am-7 pm  Tue: 1 pm-7 pm  Wed: 9 am-7 pm  Thu: 9 am-7 pm  Fri: 9 am-5 pm  Sat: 9 am-1 pm
Stanly County Public Library	Norwood Branch Library	Public	207 Pee Dee Ave	Norwood	28128	Stanly	http://www.stanlycountylibrary.org/	(704) 474-3625	Melanie Holles	Lisa Davis	"1,161"		Mon: 1 pm-7 pm  Wed: 1 pm-7 pm  Fri: 9 am-1 pm  Sat: 9 am-1 pm
Stanly County Public Library	Oakboro Branch Library	Public	214 S Main St	Oakboro	28129	Stanly	http://www.stanlycountylibrary.org/	(704) 485-4310	Melanie Holles	Barbara Thompson	"1,350"		Mon: 1 pm-7 pm  Wed: 1 pm-7 pm  Fri: 9 am-1 pm
Stanly County Public Library	Stanly County Public Library (Main)	Public	133 E Main St	Albemarle	28001	Stanly	http://www.stanlycountylibrary.org/	(704) 986-3765	Melanie Holles	Melanie Holles	"22,000"		Mon: 9 am-8 pm  Tue: 9 am-8 pm  Wed: 9 am-8 pm  Thu: 9 am-8 pm  Fri: 9 am-5 pm  Sat: 9 am-1 pm
Transylvania County Library	Transylvania County Library	Public	212 S Gaston St	Brevard	28712	Transylvania	https://library.transylvaniacounty.org/	(828) 884-3151	Anna L. Yount	Anna Yount	"34,811"	16.83	Mon: 9:30 am-8 pm  Tue: 9:30 am-5:30 pm  Wed: 9:30 am-5:30 pm  Thu: 9:30 am-8 pm  Fri: 9:30 am-5:30 pm  Sat: 9:30 am-5:30 pm 
Transylvania County Library	Transylvania County Library Bookmobile	Public	212 S Gaston St	Brevard	28712	Transylvania	https://library.transylvaniacounty.org/	(828) 884-3151	Anna L. Yount	Brenda Ivers	165	0.93	Varies
Union County Public Library	Union West Regional Library	Public	123 Unionville-Indian Trail Rd	Indian Trail	28079	Union	http://www.co.union.nc.us/departments/library	(704) 821-7475	Nina Meadows	Christie Starnes	"11,748"	12.97	Mon: 9 am-7 pm  Tue: 9 am-7 pm  Wed: 9 am-7 pm  Thu: 9 am-7 pm  Fri: 9 am-6 pm  Sat: 1 pm-5 pm  Sun: 2 pm-5 pm
Union County Public Library	Lois Morgan Edwards Memorial Library	Public	414 Hasty St	Marshville	28103	Union	http://www.co.union.nc.us/departments/library	(704) 624-2828	Nina Meadows	Timothy Speasl	"8,500"	7.20	Mon: 9 am-7 pm  Tue: 9 am-7 pm  Wed: 9 am-7 pm  Thu: 9 am-7 pm  Fri: 9 am-6 pm  Sat: 1 pm-5 pm  Sun: 2 pm-5 pm
Union County Public Library	Union County Public Library (Main)	Public	316 E Windsor St	Monroe	28112	Union	http://www.co.union.nc.us/departments/library	(704) 283-8184	Nina Meadows	Nina Meadows	"43,000"	29.79	Mon: 9 am-7 pm  Tue: 9 am-7 pm  Wed: 9 am-7 pm  Thu: 9 am-7 pm  Fri: 9 am-6 pm  Sat: 1 pm-5 pm  Sun: 2 pm-5 pm
Union County Public Library	Waxhaw Library	Public	509 S Providence St	Waxhaw	28173	Union	http://www.co.union.nc.us/departments/library	(704) 843-3131	Nina Meadows	Elaina Wolfe	"2,900"	4.07	Mon: 9 am-7 pm  Tue: 9 am-6 pm  Wed: 9 am-6 pm  Thu: 9 am-7 pm  Fri: 9 am-6 pm  Sat: 1 pm-5 pm
Wake County Public Libraries	Athens Drive High School Library	Public	1420 Athens Dr	Raleigh	27606	Wake	http://www.wakegov.com/libraries	(919) 233-4000	Michael J. Wasilick	Lauren Nicholson	"12,000"	4.00	Mon: 10 am-9 pm  Tue: 10 am-9 pm  Wed: 10 am-9 pm  Thu: 10 am-9 pm  Fri: 10 am-6 pm  Sat: 10 am-6 pm
Wake County Public Libraries	Cameron Village Regional Library	Public	1930 Clark Ave	Raleigh	27605	Wake	http://www.wakegov.com/libraries	(919) 856-6710	Michael J. Wasilick	Robert Lambert	"37,000"	20.00	Mon: 9 am-9 pm  Tue: 9 am-9 pm  Wed: 9 am-9 pm  Thu: 9 am-9 pm  Fri: 10 am-6 pm  Sat: 10 am-6 pm  Sun: 1 pm-5 pm
Wake County Public Libraries	Cary Community Library	Public	310 S Academy St	Cary	27511	Wake	http://www.wakegov.com/libraries	(919) 460-3350	Michael J. Wasilick	Liz Bartlett	"11,778"	8.00	Mon: 9 am-9 pm  Tue: 9 am-9 pm  Wed: 9 am-9 pm  Thu: 9 am-9 pm  Fri: 10 am-6 pm  Sat: 10 am-6 pm
Wake County Public Libraries	East Regional Library	Public	946 Steeple Square Ct	Knightdale	27545	Wake	http://www.wakegov.com/libraries	(919) 217-5300	Michael J. Wasilick	Brandy Hamilton	"20,519"	19.00	Mon: 9 am-9 pm  Tue: 9 am-9 pm  Wed: 9 am-9 pm  Thu: 9 am-9 pm  Fri: 10 am-6 pm  Sat: 10 am-6 pm  Sun: 1 pm-5 pm
Wake County Public Libraries	Duraleigh Road Community Library	Public	5800 Duraleigh Rd	Raleigh	27612	Wake	http://www.wakegov.com/libraries	(919) 881-1344	Michael J. Wasilick	Vanessa Marchetti	"5,900"	4.00	Mon: 10 am-9 pm  Tue: 10 am-9 pm  Wed: 10 am-9 pm  Thu: 10 am-9 pm  Fri: 10 am-6 pm  Sat: 10 am-6 pm
Wake County Public Libraries	Eva Perry Regional Library	Public	2100 Shepherds Vineyard Dr	Apex	27502	Wake	http://www.wakegov.com/libraries	(919) 387-2100	Michael J. Wasilick	Connie Harr	"22,900"	19.00	Mon: 9 am-9 pm  Tue: 9 am-9 pm  Wed: 9 am-9 pm  Thu: 9 am-9 pm  Fri: 10 am-6 pm  Sat: 10 am-6 pm  Sun: 1 pm-5 pm
Wake County Public Libraries	Express Library Fayetteville Street	Public	336 Fayetteville St	Raleigh	27601	Wake	http://www.wakegov.com/libraries	(919) 856-6690	Michael J. Wasilick	Robert Cauthen	"2,400"	1.00	Mon: 10 am-6 pm  Tue: 10 am-6 pm  Wed: 10 am-6 pm  Thu: 10 am-6 pm  Fri: 10 am-6 pm
Wake County Public Libraries	Fuquay-Varina Community Library	Public	133 S Fuquay Ave	Fuquay-Varina	27526	Wake	http://www.wakegov.com/libraries	(919) 557-2788	Michael J. Wasilick	Janet West	"4,363"	4.00	Mon: 10 am-9 pm  Tue: 10 am-9 pm  Wed: 10 am-9 pm  Thu: 10 am-9 pm  Fri: 10 am-6 pm  Sat: 10 am-6 pm
Wake County Public Libraries	Green Road Community Library	Public	4101 Green Rd	Raleigh	27604	Wake	http://www.wakegov.com/libraries	(919) 790-3200	Michael J. Wasilick	Michelle Hildreth	"8,100"	8.00	Mon: 9 am-9 pm  Tue: 9 am-9 pm  Wed: 9 am-9 pm  Thu: 9 am-9 pm  Fri: 10 am-6 pm  Sat: 10 am-6 pm
Wake County Public Libraries	Holly Springs Community Library	Public	300 W Ballentine St	Holly Springs	27540	Wake	http://www.wakegov.com/libraries	(919) 577-1660	Michael J. Wasilick	Maryjo George	"6,814"	8.00	Mon: 9 am-9 pm  Tue: 9 am-9 pm  Wed: 9 am-9 pm  Thu: 9 am-9 pm  Fri: 10 am-6 pm  Sat: 10 am-6 pm
Wake County Public Libraries	Leesville Community Library	Public	5105 Country Trl	Raleigh	27613	Wake	http://www.wakegov.com/libraries	(919) 571-6661	Michael J. Wasilick	Ellen Guerci	"8,000"	8.00	Mon: 9 am-9 pm  Tue: 9 am-9 pm  Wed: 9 am-9 pm  Thu: 9 am-9 pm  Fri: 10 am-6 pm  Sat: 10 am-6 pm
Wake County Public Libraries	Middle Creek Community Library	Public	111 Middle Creek Park Ave	Apex	27539	Wake	http://www.wakegov.com/libraries	(919) 890-7400	Michael J. Wasilick	Deborah Davis	"8,800"		Mon: 9 am-9 pm  Tue: 9 am-9 pm  Wed: 9 am-9 pm  Thu: 9 am-9 pm  Fri: 10 am-6 pm  Sat: 10 am-6 pm
Wake County Public Libraries	North Regional Library	Public	7009 Harps Mill Rd	Raleigh	27615	Wake	http://www.wakegov.com/libraries	(919) 870-4000	Michael J. Wasilick	Carol Laing	"30,000"	20.00	Mon: 9 am-9 pm  Tue: 9 am-9 pm  Wed: 9 am-9 pm  Thu: 9 am-9 pm  Fri: 10 am-6 pm  Sat: 10 am-6 pm  Sun: 1 pm-5 pm
Wake County Public Libraries	Northeast Regional Library	Public	14401 Green Elm Lane	Raleigh	27614	Wake	http://www.wakegov.com/libraries	(919) 570-7166	Michael J. Wasilick	Yvonne Allen	"22,351"	19.00	Mon: 9 am-9 pm  Tue: 9 am-9 pm  Wed: 9 am-9 pm  Thu: 9 am-9 pm  Fri: 10 am-6 pm  Sat: 10 am-6 pm  Sun: 1 pm-5 pm
Wake County Public Libraries	Olivia Raney Local History Library	Public	4016 Carya Dr	Raleigh	27610	Wake	http://www.wakegov.com/libraries	(919) 250-1196	Michael J. Wasilick	Saundra Cropps	"7,845"	2.00	Mon: 10 am-6 pm  Tue: 10 am-6 pm  Wed: 10 am-6 pm  Thu: 10 am-6 pm  Fri: 10 am-6 pm  Sat: 10 am-2 pm
Wake County Public Libraries	Richard B. Harrison Community Library	Public	1313 New Bern Ave	Raleigh	27610	Wake	http://www.wakegov.com/libraries	(919) 856-5720	Michael J. Wasilick	Wanda Cox-Bailey	"9,360"	8.00	Mon: 9 am-9 pm  Tue: 9 am-9 pm  Wed: 9 am-9 pm  Thu: 9 am-9 pm  Fri: 10 am-6 pm  Sat: 10 am-6 pm
Wake County Public Libraries	Southgate Community Library	Public	1601-14 Crosslink Rd	Raleigh	27610	Wake	http://www.wakegov.com/libraries	(919) 856-6598	Michael J. Wasilick	Avis Jones	"5,400"	4.00	Mon: 10 am-9 pm  Tue: 10 am-9 pm  Wed: 10 am-9 pm  Thu: 10 am-9 pm  Fri: 10 am-6 pm  Sat: 10 am-6 pm
Wake County Public Libraries	Southeast Regional Library	Public	908 7th Ave	Garner	27529	Wake	http://www.wakegov.com/libraries	(919) 662-2250	Michael J. Wasilick	Nicole Lambert	"21,941"	19.00	Mon: 9 am-9 pm  Tue: 9 am-9 pm  Wed: 9 am-9 pm  Thu: 9 am-9 pm  Fri: 10 am-6 pm  Sat: 10 am-6 pm  Sun: 1 pm-5 pm
Wake County Public Libraries	Wake Forest Community Library	Public	400 E Holding Ave	Wake Forest	27587	Wake	http://www.wakegov.com/libraries	(919) 554-8498	Michael J. Wasilick	Valerie Pierce	"5,170"	4.00	Mon: 10 am-9 pm  Tue: 10 am-9 pm  Wed: 10 am-9 pm  Thu: 10 am-9 pm  Fri: 10 am-6 pm  Sat: 10 am-6 pm
Wake County Public Libraries	Wendell Community Library	Public	207 S Hollybrook Rd	Wendell	27591	Wake	http://www.wakegov.com/libraries	(919) 365-2600	Michael J. Wasilick	Crystal L. Mitchener	"4,724"	4.00	Mon: 10 am-9 pm  Tue: 10 am-9 pm  Wed: 10 am-9 pm  Thu: 10 am-9 pm  Fri: 10 am-6 pm  Sat: 10 am-6 pm
Wake County Public Libraries	West Regional Library	Public	4000 Louis Stephens Dr	Cary	27519	Wake	http://www.wakegov.com/libraries	(919) 463-8500	Michael J. Wasilick	DebbieShreve	"29,480"	20.00	Mon: 9 am-9 pm  Tue: 9 am-9 pm  Wed: 9 am-9 pm  Thu: 9 am-9 pm  Fri: 10 am-6 pm  Sat: 10 am-6 pm  Sun: 1 pm-5 pm
Wake County Public Libraries	Zebulon Community Library	Public	1000 Dogwood Dr	Zebulon	27597	Wake	http://www.wakegov.com/libraries	(919) 404-3610	Michael J. Wasilick	Amy Mason	"5,170"	4.00	Mon: 10 am-9 pm  Tue: 10 am-9 pm  Wed: 10 am-9 pm  Thu: 10 am-9 pm  Fri: 10 am-6 pm  Sat: 10 am-6 pm
Warren County Memorial Library	Warren County Memorial Library	Public	119 S Front St	Warrenton	27589	Warren	http://www.wcmlibrary.org/	(252) 257-4990	Cheryl Reddish	Cheryl Reddish	"13,770"	8.00	Mon: 9 am-7 pm  Tue: 9 am-7 pm  Wed: 9 am-7 pm  Thu: 9 am-7 pm  Fri: 9 am-5 pm  Sat: 10 am-2 pm
Wayne County Public Library	Fremont Public Library	Public	202 N Goldsboro St	Fremont	27830	Wayne	http://nc-waynecountylibrary.civicplus.com/	(919) 705-1893	Donna Phillips	Lisa Stevens	"1,000"	1.30	Mon: 2 pm-6 pm  Tue: 9 am-1 pm  Wed: 9 am-1 pm  Thu: 2 pm-6 pm  Fri: 9 am-1 pm 
Wayne County Public Library	Pikeville Public Library	Public	107 W Main St	Pikeville	27863	Wayne	http://nc-waynecountylibrary.civicplus.com/	(919) 705-1892	Donna Phillips	Lisa Stevens	"2,165"	1.40	Mon: 9 am-1 pm  Tue: 2 pm-6 pm  Wed: 2 pm-6 pm  Thu: 9 am-1 pm  Fri: 2 pm-6 pm  Sat: 9 am-1 pm
Wayne County Public Library	Steele Memorial Library	Public	119 W Main St	Mount Olive	28365	Wayne	http://nc-waynecountylibrary.civicplus.com/	(919) 299-8105	Donna Phillips	Stephanie Edwards	"20,959"	11.02	Mon: 9 am-6 pm  Tue: 9 am-8 pm  Wed: 9 am-6 pm  Thu: 9 am-8 pm  Fri: 9 am-6 pm  Sat: 10 am-3 pm
Wayne County Public Library	Wayne County Public Library (Main)	Public	1001 E Ash St	Goldsboro	27530	Wayne	http://nc-waynecountylibrary.civicplus.com/	(919) 735-1824	Donna Phillips	Donna Phillips	"22,546"	22.19	Mon: 9 am-9 pm  Tue: 9 am-9 pm  Wed: 9 am-9 pm  Thu: 9 am-9 pm  Fri: 9 am-5:30 pm  Sat: 9 am-5:30 pm
Wilson County Public Library	Black Creek Branch Library	Public	103 Central Ave	Black Creek	27813	Wilson	https://www1.youseemore.com/wilsoncountypl/default.asp	(252) 237-3715	Molly Westmoreland	Sarah Packard	"1,510"	2.00	Mon: 10 am-6 pm  Tue: 10 am-6 pm  Wed: 10 am-6 pm  Thu: 10 am-6 pm  Fri: 10 am-6 pm
Wilson County Public Library	Crocker Branch Library	Public	114 S Main St	Stantonsburg	27883	Wilson	https://www1.youseemore.com/wilsoncountypl/default.asp	(252) 238-3758	Molly Westmoreland	Donna Bullard	"1,998"	0.30	Mon: 1:30 pm -5 pm  Tue: 1:30 pm -5 pm  Wed: 1:30 pm -5 pm  Thu: 1:30 pm -5 pm 
Wilson County Public Library	East Branch Library	Public	1006-C Ward Blvd	Wilson	27893	Wilson	https://www1.youseemore.com/wilsoncountypl/default.asp	(252) 237-2627	Molly Westmoreland	Brenda Edmondson	"1,300"	0.30	Mon: 2 pm -5:30 pm  Tue: 2 pm -5:30 pm  Wed: 2 pm -5:30 pm  Thu: 2 pm -5:30 pm 
Wilson County Public Library	Elm City Branch Library	Public	114 N Railroad St	Elm City	27822	Wilson	https://www1.youseemore.com/wilsoncountypl/default.asp	(252) 236-4269	Molly Westmoreland	Gloria Sue Young	"3,500"	2.00	Mon: 10 am-6 pm  Tue: 10 am-6 pm  Wed: 10 am-6 pm  Thu: 10 am-6 pm  Fri: 10 am-6 pm
Wilson County Public Library	Lucama Branch Library	Public	103 E Spring St	Lucama	27851	Wilson	https://www1.youseemore.com/wilsoncountypl/default.asp	(252) 239-0046	Molly Westmoreland	Karey Blanchard	"1,675"	2.00	Mon: 10 am-6 pm  Tue: 10 am-6 pm  Wed: 10 am-6 pm  Thu: 10 am-6 pm  Fri: 10 am-6 pm
Wilson County Public Library	Wilson County Public Library (Main)	Public	249 Nash St W	Wilson	27893	Wilson	https://www1.youseemore.com/wilsoncountypl/default.asp	(252) 237-5355	Molly Westmoreland	Molly Westmoreland	"43,740"	21.50	Mon: 9 am-9 pm  Tue: 9 am-9 pm  Wed: 9 am-9 pm  Thu: 9 am-6 pm  Fri: 9 am-6 pm  Sat: 9 am-6 pm
Wilson County Public Library	Wilson County Public Library Bookmobile	Public	249 W Nash St	Wilson	27893	Wilson	https://www1.youseemore.com/wilsoncountypl/default.asp	(252) 237-5355	Molly Westmoreland	Alison Howard	360	0.09	Varies
Alamance Community College		Community College	1247 Jimmie Kerr Rd	Graham	27253	Alamance	http://library.alamancecc.edu/library	(336) 506-4116	Sheila Street				
Asheville-Buncombe Tech Community College		Community College	340 Victoria Rd	Asheville	28801	Buncombe	https://www.abtech.edu/library	(828) 254-1921	Russell Taylor				
Beaufort County Community College		Community College	5337 Hwy 264 East	Washington	27889	Beaufort	http://beaufortccc.libguides.com/libraryhome	(252) 946-6194	Paula Hopper				
Bladen Community College		Community College	7418 NC Hwy 41W	Dublin	28332	Bladen	http://www.bladencc.edu/campus-resources/library/	(910) 879-5641	Sherwin Rice				
Blue Ridge Community College		Community College	180 West Campus Dr	Flat Rock	28731	Henderson	http://www.blueridge.edu/campus-life/library	(828) 694-1879	Ali Norvell				
Brunswick Community College		Community College	50 College Rd	Bolivia	28422	Brunswick	http://www.brunswickcc.edu/library/	(910) 755-7331	Carmen Ellis				
Caldwell Community College & Technical Institute		Community College	2855 Hickory Blvd	Hudson	28638	Caldwell	http://www.cccti.edu/Library/Default.asp	(828) 726-2309	Alison Beard				
Cape Fear Community College		Community College	415 N Second St	Wilmington	28401	New Hanover	http://cfcc.edu/lrc/	(910) 362-7030	Catherine Lee				
Carteret Community College		Community College	201 College Circle	Morehead City	28557	Carteret	http://www.carteret.edu/library/	(252) 222-6213	Elizabeth Baker				
Catawba Valley Community College		Community College	2550 US Hwy 70 SE	Hickory	28602	Catawba	http://www.cvcc.edu/Services/Library/index.cfm	(828) 327-7000	Staci Wilson				
Central Carolina Community College		Community College	1105 Kelly Dr	Sanford	27330	Lee	http://www.cccc.edu/library/	(919) 718-7244	Tara Lucas				
Central Piedmont Community College		Community College	1201 Elizabeth Ave	Charlotte	28235	Mecklenburg	http://www.cpcc.edu/library	(704) 330-6885	Gloria Kelley				
Cleveland Community College		Community College	137 South Post Rd	Shelby	28152	Cleveland	http://library.clevelandcc.edu/home	(704) 669-4024	Jerrianne Queen				
Coastal Carolina Community College		Community College	444 Western Blvd	Jacksonville	28546	Onslow	http://coastalcarolina.libguides.com/library	(910) 938-6237	Sally Goodman				
College of the Albemarle		Community College	1208 N Road St	Elizabeth City	27909	Pasquotank	https://www.albemarle.edu/student-resources/academic-support/library/	(252) 335-0821	Rodney Wooten				
Craven Community College		Community College	800 College Ct	New Bern	28562	Craven	http://cravencc.libguides.com/library	(252) 638-7272	Cathy Campbell				
Davidson County Community College		Community College	297 DCCC Rd	Lexington	27295	Davidson	https://dlibrary.libguides.com/library	(336) 224-4727	Jason Setzer				
Durham Technical Community College		Community College	1637 Lawson St	Durham	27703	Durham	https://www.durhamtech.edu/dtcclibrary/index.htm	(919) 536-7200	Julie Humphrey				
Edgecombe Community College		Community College	2009 W Wilson St	Tarboro	27886	Edgecombe	http://www.edgecombe.edu/student-portal/library-lrc/	(252) 823-5166	Deborah Parisher				
Fayetteville Technical Community College		Community College	2201 Hull Rd	Fayetteville	28303	Cumberland	https://www.faytechcc.edu/campus-life/academic-support/library/	(910) 678-8247	Laurence Gavin				
Forsyth Technical Community College		Community College	2100 Silas Creek Parkway	Winston-Salem	27103	Forsyth	http://www.forsythtech.edu/student-services/bookstores-library/library/	(336) 734-7219	Randy Candelaria				
Gaston College		Community College	201 Highway 321 South	Dallas	28034	Gaston	http://www.gaston.edu/library/	(704) 922-6359	Harry Cooke				
Guilford Technical Community College		Community College	601 High Point Rd	Jamestown	27282	Guilford	https://library.gtcc.edu/	(336) 334-4822	Monica Young				
Halifax Community College		Community College	200 College Dr	Weldon	27890	Halifax	http://www.halifaxcc.edu/Library/	(252) 536-7236	Lynn Allen				
Haywood Community College		Community College	185 Freedlander Dr	Clyde	28721	Haywood	http://haywood.libguides.com/home	(828) 627-4550	Bill Kinyon				
Isothermal Community College		Community College	286 ICC Loop Rd	Spindale	28160	Rutherford	http://library.isothermal.edu/home	(828) 395-1307	Charles Wiggins				
James Sprunt Community College		Community College	133 James Sprunt Dr	Kenansville	28349	Duplin	https://jamessprunt.libguides.com/home	(910) 275-6330	Colleen Kehoe-Robinson				
Johnston Community College		Community College	245 College Rd	Smithfield	27577	Johnston	http://johnstoncc.libguides.com/libraryhome1	(919) 464-2251	Jennifer Seagraves				
Lenoir Community College		Community College	231 Hwy 58 South	Kinston	28502	Lenoir	https://www.lenoircc.edu/lrc/	(252) 527-6223	Rich Garafolo				
Martin Community College		Community College	1161 Kehukee Park Rd	Williamston	27892	Martin	http://martincc.libguides.com/library	(252) 789-0238	Mary Anne Caudle				
Mayland Community College		Community College	200 Mayland Dr	Spruce Pine	28777	Mitchell	https://www.mayland.edu/lrc	(828) 765-7351	Jon Wilmesherr				
McDowell Technical Community College		Community College	54 College Dr	Marion 	28752	McDowell	http://mcdowelltech.libguides.com/home	(828) 652-0697	Patricia Tallent (Interim)				
Mitchell Community College		Community College	500 West Broad St	Statesville	28677	Iredell	https://mitchellcc.edu/library	(704) 878-3271	Beverly Rufty				
Montgomery Community College		Community College	1011 Page St	Troy	27371	Montgomery	https://www.montgomery.edu/library	(910) 576-6222	Deborah Ashby				
Nash Community College		Community College	522 N Old Carriage Rd	Rocky Mount	27804	Nash	https://www.nashcc.edu/campus-life/student-resources/library	(252) 451-8244	Deana Guido				
Pamlico Community College		Community College	5049 Hwy 306 South	Grantsboro	28529	Pamlico	http://pamlicocc.libguides.com/library	(252) 249-1851	Paul Goodson				
Piedmont Community College		Community College	1715 College Dr	Roxboro	27573	Person	http://www.piedmontcc.edu/lrc	(336) 599-1181	Vanessa Bass				
Pitt Community College		Community College	1986 Pitt Tech Rd	Winterville	28590	Pitt	https://pittcc.edu/campus-life/library/	(252) 493-7350	Leigh Russell 				
Randolph Community College		Community College	629 Industrial Park Ave	Asheboro	27205	Randolph	https://www.randolph.edu/library-home.html	(336) 633-0204	Debbie Luck				
Richmond Community College		Community College	1042 W Hamlet Ave	Hamlet	28345	Richmond	http://richmondcc.edu/library	(910) 410-1755	Carolyn Bittle				
Roanoke-Chowan Community College		Community College	109 Community College Rd	Ahoskie	27910	Hertford	http://libguides.roanokechowan.edu/home	(252) 862-1209	Bonnie Burkett				
Robeson Community College		Community College	5160 Fayetteville Rd	Lumberton	28360	Robeson	https://www.robeson.edu/rcclib/	(910) 272-3324	Maryellen O'Brien				
Rockingham Community College		Community College	215 Wrenn Memorial Rd	Wentworth	27375	Rockingham	http://library.rockinghamcc.edu/home	(336) 342-4261	Mary Gomez				
Rowan-Cabarrus Community College		Community College	1333 Jake Alexander Blvd South	Salisbury	28146	Rowan	https://www.rccc.edu/lrc/	(704) 216-3691	Lisa Shores (Interim)				
Sampson Community College		Community College	1801 Sunset Ave	Clinton	28328	Sampson	https://www.sampsoncc.edu/resources-services/library-services/	(910) 592-8081	Donna Odum				
Sandhills Community College		Community College	3395 Airport Rd	Pinehurst	28374	Moore	http://www.sandhills.edu/katharine-boyd-library-sandhills-community-college-6/	(910) 695-3819	Tammy Stewart				
South Piedmont Community College		Community College	4209 Old Charlotte Hwy	Monroe	28110	Union	http://www.spcc.edu/libraries/	(704) 290-5851	Grant LeFoe				
Southeastern Community College		Community College	4564 Chadbourn Hwy	Whiteville	28472	Columbus	http://sccnc.edu/library/	(910) 642-7141	Kay Houser				
Southwestern Community College		Community College	447 College Dr	Sylva	28779	Jackson	https://www.southwesterncc.edu/library	(828) 586-4091	Tina Adams				
Stanly Community College		Community College	141 College Dr	Albemarle	28001	Stanly	https://www.stanly.edu/library	(704) 991-0259	Joel Ferdon				
Surry Community College		Community College	630 S Main St	Dobson	27017	Surry	http://library.surry.edu/home	(336) 386-3259	David Wright				
Tri-County Community College		Community College	21 Campus Circle	Murphy	28906	Cherokee	https://www.tricountycc.edu/learning-resources/library/	(828) 835-4314	Rachel McLean				
Vance-Granville Community College		Community College	200 Community College Rd	Henderson	27536	Vance	http://library.vgcc.edu/home	(252) 738-3279	Elaine Stem				
Wake Technical Community College		Community College	9101 Fayetteville Rd	Raleigh 	27603	Wake	https://www.waketech.edu/student-services/libraries	(919) 866-5644	Carenado Davis				
Wayne Community College		Community College	3000 Wayne Memorial Dr	Goldsboro	27533	Wayne	https://www.waynecc.edu/library/	(919) 739-6891	Ruth Aletha Andrew				
Western Piedmont Community College		Community College	1001 Burkemont Ave	Morganton	28655	Burke	http://www.wpcc.edu/library/	(828) 448-6195	Nancy Daniel				
Wilkes Community College		Community College	1328 S Collegiate Dr	Wilkesboro	28697	Wilkes	https://www.wilkescc.edu/student-resources/pardue-library/	(336) 838-6114	Christy Earp 				
Wilson Community College		Community College	902 Herring Ave	Wilson	27893	Wilson	https://www.wilsoncc.edu/college-services/library/	(252) 246-1337	Gerry O'Neill				
Appalachian State University		College/University	218 College St	Boone	28608	Watauga	https://library.appstate.edu/	(828) 262-2186	Dane Ward				
Barton College		College/University	400 Atlantic Christian College Dr NE	Wilson	27893	Wilson	https://barton.libguides.com/home	(252) 399-6500	Robert Cagna				
Belmont Abbey College		College/University	100 Belmont - Mt. Holly Rd	Belmont	28012	Gaston	http://belmontabbeycollege.edu/academics/library-information-services/	(704) 461-6737	Don Beagle				
Bennett College		College/University	900 E Washington St	Greensboro	27401	Guilford	http://library.bennett.edu/	(336) 517-2139	Joan Williams				
Brevard College		College/University	1 Brevard College Dr	Brevard	28712	Transylvania	https://my.brevard.edu/ICS/Library/Home.jnz	(828) 884-8268	Marie Jones				
Cabarrus College of Health Sciences		College/University	401 Medical Park Dr	Concord	28025	Cabarrus	http://cabarruscollege.libguides.com/library/home	(704) 403-1798	Cassie Dixon				
Campbell University		College/University	450 Leslie Campbell Ave	Buies Creek	27506	Harnett	http://www.lib.campbell.edu/	(910) 893-1462	Alexia Riggs				
Campbell University School of Law		College/University	225 Hillsborough St Suite 203	Raleigh	27603	Wake	https://law.campbell.edu/learn/campbell-law-library/	(919) 865-5869	Olivia Weeks				
Catawba College		College/University	2300 W Innes St	Salisbury	28144	Rowan	http://libweb.catawba.edu/	(704) 637-4448	"Earl Givens, Jr."				
Chowan University		College/University	1 University Place	Murfreesboro	27855	Hertford	http://libguides.chowan.edu/home	(252) 398-6212	Georgia Williams				
Davidson College		College/University	209 Ridge Rd	Davidson	28035	Mecklenburg	https://www.davidson.edu/library	(704) 894-2331	Lisa Forrest				
Duke University		College/University	411 Chapel Dr	Durham	27708	Durham	https://library.duke.edu/	(919) 660-5870	Deborah Jakubs				
Duke University Divinity School		College/University	407 Chapel Dr	Durham	27708	Durham	http://library.divinity.duke.edu/	(919) 660-3450	Katie Benjamin (Interim)				
Duke University Medical Center		College/University	10 Bryan Searle Rd	Durham	27710	Durham	https://mclibrary.duke.edu/	(919) 660-1100	Megan Von Isenburg				
Duke University School of Business		College/University	100 Fuqua Dr	Durham	27708	Durham	https://library.fuqua.duke.edu/index.php	(919) 660-7875	Meg Trauner				
Duke University School of Law		College/University	210 Science Dr	Durham	27708	Durham	https://law.duke.edu/lib/	(919) 613-7128	Femi Cadmus				
East Carolina University		College/University	East Fifth St	Greenville	27858	Pitt	http://www.ecu.edu/lib/	(252) 328-6690	Jan Lewis 				
East Carolina University Division of Health Sciences		College/University	600 Moye Blvd	Greenville	27834	Pitt	https://hsl.ecu.edu/	(252) 744-2230	Beth Ketterman				
Elizabeth City State University		College/University	1704 Weeksville Rd	Elizabeth City	27909	Pasquotank	http://www.ecsu.edu/academics/library/index.html	(252) 335-3400	Juanita Midgette				
Elon University		College/University	400 N O'Kelly Ave	Elon	27244	Alamance	https://www.elon.edu/e/library/	(336) 278-2000	Joan Ruelle				
Fayetteville State University		College/University	1200 Murchison Rd	Fayetteville	28301	Cumberland	http://libguides.uncfsu.edu/chesnuttlibrary	(910) 672-1231	Vacant				
Gardener-Webb University		College/University	110 S Main St	Boiling Springs	28017	Cleveland	http://www.gardner-webb.edu/library/	(704) 406-4298	Pam Dennis				
Greensboro College		College/University	815 W Market St	Greensboro	27401	Guilford	https://www.greensboro.edu/library/	(336) 272-7102	Will Ritter				
Guilford College		College/University	5800 W Friendly Ave	Greensboro	27410	Guilford	https://www.guilford.edu/library	(336) 316-2450	Suzanne Bartels				
High Point University		College/University	833 Montlieu Ave	High Point	27262	Guilford	http://www.highpoint.edu/library/	(336) 841-9102	David Bryden				
Johnson C. Smith University		College/University	100 Beatties Ford Rd	Charlotte	28216	Mecklenburg	http://library.jcsu.edu/	(704) 371-6731	Monika Rhue				
Lees McRae College		College/University	191 Main St	Banner Elk	28604	Avery	http://www.lmc.edu/academics/library/index.htm	(828) 898-8727	Jess Bellemer				
Lenoir-Rhyne University		College/University	625 7th Ave NE	Hickory	28601	Catawba	http://libguides.lr.edu/rudisilllibrary/home	(828) 328-7236	Frank Quinn				
Livingstone College		College/University	701 W Monroe St	Salisbury	28144	Rowan	http://www.livingstone.edu/academics/andrew-carnegie-library/	(704) 216-6030	Laura Johnson				
Louisburg College		College/University	501 N Main St	Louisburg	27549	Franklin	https://www.louisburg.edu/academics/library/index.php	(919) 497-3237	Pat Hinton				
Mars Hill University		College/University	100 Athletic St	Mars Hill	28754	Madison	http://library.mhu.edu/	(828) 689-1244	Bev Robertson				
Meredith College		College/University	3800 Hillsborough St	Raleigh	27607	Wake	http://infotogo.meredith.edu/home	(919) 760-8532	Laura Davidson				
Methodist University		College/University	5400 Ramsey St	Fayetteville	28311	Cumberland	http://www.methodist.edu/library	(910) 630-7123	Tracey Pearson				
Montreat College		College/University	310 Gaither Circle	Montreat	28757	Buncombe	https://www.montreat.edu/mymontreat/library/	(828) 669-8012	Nathan King (Interim)				
North Carolina A&T State University		College/University	1601 E Market St	Greensboro	27411	Guilford	http://www.library.ncat.edu/	(336) 285-4185	Vicki Coleman				
North Carolina Central University		College/University	1801 Fayetteville St	Durham	27707	Durham	http://web.nccu.edu/shepardlibrary/	(919) 530-6426	Theodosia Shields				
North Carolina Central University School of Law		College/University	640 Nelson St	Durham	27707	Durham	http://ncculaw.libguides.nccu.edu/lawlibrary	(919) 530-5189	Nichelle J. Perry				
North Carolina School of Science & Mathematics		College/University	1219 Broad St	Durham	27705	Durham	https://www.ncssm.edu/residential-program/academics/library-resources	(919) 416-2920	Robin Boltz				
North Carolina State University		College/University	2 Broughton Dr	Raleigh	27695	Wake	http://www.lib.ncsu.edu/	(919) 515-3364	Greg Raschke				
North Carolina Wesleyan College		College/University	3400 N Wesleyan Blvd	Rocky Mount	27804	Nash	https://ncwc.edu/library/	(252) 985-5350	Esther Burgess				
Pfeiffer University		College/University	48380 US Hwy 52	Misenheimer	28109	Stanly	http://library.pfeiffer.edu/	(704) 463-3350	Lara Little				
Queens University of Charlotte		College/University	1900 Selwyn Ave	Charlotte	28274	Mecklenburg	http://library.queens.edu/lib/home	(704) 337-2401	Eric Shoaf				
Saint Andrews University		College/University	1700 Dogwood Mile	Laurinburg	28352	Scotland	https://www.sa.edu/detamble	(910) 277-5049	Mary McDonald 				
Saint Augustine's University		College/University	1315 Oakwood Ave	Raleigh	27610	Wake	http://library.st-aug.edu/	(919) 516-4145	Tiwanna Nevels				
Salem College		College/University	626 S Church St	Winston-Salem	27101	Forsyth	http://library.salem.edu/	(336) 721-2649	Elizabeth Novicki				
Shaw University		College/University	118 E South St	Raleigh	27601	Wake	http://www.shawu.edu/libraries/	(919) 546- 8407	Tom Clark (Interim)				
University of Mount Olive		College/University	634 Henderson St	Mount Olive	28365	Wayne	https://umo.edu/academics/library/	(919) 658-7869	Pamela Wood				
University of North Carolina - Asheville		College/University	1 University Heights	Asheville	28804	Buncombe	http://library.unca.edu/	(828) 251-6336	Leah Dunn				
University of North Carolina - Chapel Hill		College/University	208 Raleigh St	Chapel Hill	27515	Orange	http://library.unc.edu/	(919) 962-1053	Elaine Westbrooks				
University of North Carolina - Chapel Hill Health Sciences		College/University	335 S Columbia St	Chapel Hill	27599	Orange	http://hsl.lib.unc.edu/	(919) 962-0800	Nandita Mani				
University of North Carolina - Chapel Hill School of Law		College/University	160 Ridge Rd	Chapel Hill	27599	Orange	https://library.law.unc.edu/	(919) 962-1321	Anne Klinefelter				
University of North Carolina - Charlotte		College/University	9201 University City Blvd	Charlotte	28223	Mecklenburg	https://library.uncc.edu/	(704) 687-2030	Anne Moore				
University of North Carolina - Greensboro		College/University	320 College Ave	Greensboro	27412	Guilford	https://library.uncg.edu/	(336) 334-5304	Martin Halbert				
University of North Carolina - Pembroke		College/University	1 University Dr	Pembroke	28372	Robeson	http://www.uncp.edu/academics/library	(910) 521-6516	Dennis Swanson				
University of North Carolina - Wilmington		College/University	601 S College Rd	Wilmington	28403	New Hanover	https://library.uncw.edu/	(910) 962-3760	Lucy Holman				
University of North Carolina School of the Arts		College/University	1533 S Main St	Winston-Salem	27117	Forsyth	https://library.uncsa.edu/home/	(336) 770-3270	Sarah Falls				
Wake Forest University		College/University	1834 Wake Forest Rd	Winston-Salem	27109	Forsyth	https://zsr.wfu.edu/	(336) 758-4931	Tim Pyatt				
Wake Forest University School of Law		College/University	1834 Wake Forest Rd	Winston-Salem	27109	Forsyth	http://library.law.wfu.edu/	(336) 758-5438	Christopher Knott				
Wake Forest University School of Medicine		College/University	Medical Center Blvd	Winston-Salem	27157	Forsyth	http://www.wakehealth.edu/Library/	(336) 716-4691	Parks Welch				
Warren Wilson College		College/University	701 Warren Wilson Rd	Swannanoa	28778	Buncombe	https://www.warren-wilson.edu/academics/library	(828) 771-3058	Chris Nugent				
Western Carolina University		College/University	176 Central Dr	Cullowhee	28723	Jackson	https://www.wcu.edu/hunter-library/	(828) 227-7307	Farzaneh Razzaghi				
William Peace University		College/University	15 E Peace St	Raleigh	27604	Wake	https://www.peace.edu/academics/academic-resources/library/	(919) 508-2302	Nate Hellmers				
Wingate University		College/University	110 Church St	Wingate	28174	Union	http://library.wingate.edu/	(704) 233-8089	Amee Odom				
Winston-Salem State University		College/University	601 S Martin Luther King Jr Dr	Winston-Salem	27110	Forsyth	https://www.wssu.edu/academics/cg-okelly-library/index.html	(336) 750-2449	Wanda Brown				
